{"type":"FeatureCollection","features":[{"type":"Feature","geometry":{"type":"Point","coordinates":[-63.04888888888889,18.100555833333335]},"properties":{"icao":"TFFG","name":"L’Espérance / Grand Case (St Martin)","group":"Juliana TMA (TNCM)","controlled":false,"twr":null,"twr_name":null,"twr_freq":null}},{"type":"Feature","geometry":{"type":"Point","coordinates":[-62.84388888888889,17.90444388888889]},"properties":{"icao":"TFFJ","name":"Gustaf III (St Barthélemy)","group":"Juliana TMA (TNCM)","controlled":false,"twr":null,"twr_name":null,"twr_freq":null}},{"type":"Feature","geometry":{"type":"Point","coordinates":[-70.01523083333333,12.501382777777778]},"properties":{"icao":"TNCA","name":"Queen Beatrix Int’l (Aruba)","group":"Curaçao FIR (TNCF)","controlled":true,"twr":"TNCA_TWR","twr_name":"Beatrix Tower","twr_freq":"118.000"}},{"type":"Feature","geometry":{"type":"Point","coordinates":[-68.26749972222223,12.130832777777778]},"properties":{"icao":"TNCB","name":"Flamingo Int’l (Bonaire)","group":"Curaçao FIR (TNCF)","controlled":true,"twr":"TNCB_TWR","twr_name":"Flamingo Tower","twr_freq":"118.700"}},{"type":"Feature","geometry":{"type":"Point","coordinates":[-68.95969194444444,12.188913888888889]},"properties":{"icao":"TNCC","name":"Hato / Curaçao Int’l","group":"Curaçao FIR (TNCF)","controlled":true,"twr":"TNCC_TWR","twr_name":"Hato Tower","twr_freq":"118.300"}},{"type":"Feature","geometry":{"type":"Point","coordinates":[-62.97986888888889,17.49621888888889]},"properties":{"icao":"TNCE","name":"F.D. Roosevelt (St Eustatius)","group":"Juliana TMA (TNCM)","controlled":false,"twr":null,"twr_name":null,"twr_freq":null}},{"type":"Feature","geometry":{"type":"Point","coordinates":[-63.10895777777778,18.040927777777778]},"properties":{"icao":"TNCM","name":"Princess Juliana Int’l (St Maarten)","group":"Juliana TMA (TNCM)","controlled":true,"twr":"TNCM_TWR","twr_name":"Juliana Tower","twr_freq":"118.700"}},{"type":"Feature","geometry":{"type":"Point","coordinates":[-63.22034388888889,17.64526888888889]},"properties":{"icao":"TNCS","name":"Juancho E. Yrausquin (Saba)","group":"Juliana TMA (TNCM)","controlled":false,"twr":null,"twr_name":null,"twr_freq":null}},{"type":"Feature","geometry":{"type":"Point","coordinates":[-63.05385277777778,18.204799722222223]},"properties":{"icao":"TQPF","name":"Clayton J. Lloyd Int’l (Anguilla)","group":"Juliana TMA (TNCM)","controlled":true,"twr":"TQPF_TWR","twr_name":"CJ Lloyd Tower","twr_freq":"118.500"}},{"type":"Feature","geometry":{"type":"Point","coordinates":[-61.79388888888889,17.136110833333333]},"properties":{"icao":"TAPA","name":"V.C. Bird Int’l (Antigua)","group":"Piarco FIR (TTZP)","controlled":true,"twr":"TAPA_TWR","twr_name":"VC Bird Tower","twr_freq":"118.200"}},{"type":"Feature","geometry":{"type":"Point","coordinates":[-61.766666944444445,17.5625]},"properties":{"icao":"TAPB","name":"Barbuda Int’l (Codrington)","group":"Piarco FIR (TTZP)","controlled":false,"twr":null,"twr_name":null,"twr_freq":null}},{"type":"Feature","geometry":{"type":"Point","coordinates":[-59.49210277777778,13.074641944444444]},"properties":{"icao":"TBPB","name":"Grantley Adams Int’l (Barbados)","group":"Piarco FIR (TTZP)","controlled":true,"twr":"TBPB_TWR","twr_name":"Adams Tower","twr_freq":"118.700"}},{"type":"Feature","geometry":{"type":"Point","coordinates":[-61.39202777777778,15.33675]},"properties":{"icao":"TDCF","name":"Canefield (Dominica)","group":"Piarco FIR (TTZP)","controlled":true,"twr":"TDCF_TWR","twr_name":"Canefield Tower","twr_freq":"118.700"}},{"type":"Feature","geometry":{"type":"Point","coordinates":[-61.30138888888889,15.546666944444445]},"properties":{"icao":"TDPD","name":"Douglas–Charles (Dominica)","group":"Piarco FIR (TTZP)","controlled":true,"twr":"TDPD_TWR","twr_name":"Douglas Charles Tower","twr_freq":"118.900"}},{"type":"Feature","geometry":{"type":"Point","coordinates":[-61.08444388888889,16.29694388888889]},"properties":{"icao":"TFFA","name":"La Désirade","group":"Piarco FIR (TTZP)","controlled":false,"twr":null,"twr_name":null,"twr_freq":null}},{"type":"Feature","geometry":{"type":"Point","coordinates":[-61.742221944444445,16.013332777777777]},"properties":{"icao":"TFFB","name":"Marie-Galante","group":"Piarco FIR (TTZP)","controlled":false,"twr":null,"twr_name":null,"twr_freq":null}},{"type":"Feature","geometry":{"type":"Point","coordinates":[-61.2625,16.25777777777778]},"properties":{"icao":"TFFC","name":"Saint-François","group":"Piarco FIR (TTZP)","controlled":false,"twr":null,"twr_name":null,"twr_freq":null}},{"type":"Feature","geometry":{"type":"Point","coordinates":[-60.99638888888889,14.592221944444445]},"properties":{"icao":"TFFF","name":"Martinique Aimé Césaire Int’l","group":"Piarco FIR (TTZP)","controlled":true,"twr":"TFFF_TWR","twr_name":"Martinique Tower","twr_freq":"118.500"}},{"type":"Feature","geometry":{"type":"Point","coordinates":[-61.272221944444446,15.868610833333333]},"properties":{"icao":"TFFM","name":"Les Saintes","group":"Piarco FIR (TTZP)","controlled":false,"twr":null,"twr_name":null,"twr_freq":null}},{"type":"Feature","geometry":{"type":"Point","coordinates":[-61.52583277777778,16.264166944444444]},"properties":{"icao":"TFFR","name":"Pointe-à-Pitre / Le Raizet (Guadeloupe)","group":"Piarco FIR (TTZP)","controlled":true,"twr":"TFFR_TWR","twr_name":"Raizet Tower","twr_freq":"118.400"}},{"type":"Feature","geometry":{"type":"Point","coordinates":[-61.580555833333335,15.86444388888889]},"properties":{"icao":"TFFS","name":"Grand-Bourg","group":"Piarco FIR (TTZP)","controlled":false,"twr":null,"twr_name":null,"twr_freq":null}},{"type":"Feature","geometry":{"type":"Point","coordinates":[-61.78619194444444,12.004246944444445]},"properties":{"icao":"TGPY","name":"Maurice Bishop Int’l (Grenada)","group":"Piarco FIR (TTZP)","controlled":true,"twr":"TGPY_TWR","twr_name":"Maurice Bishop Tower","twr_freq":"118.900"}},{"type":"Feature","geometry":{"type":"Point","coordinates":[-61.47222194444445,12.476943888888888]},"properties":{"icao":"TGPZ","name":"Lauriston (Carriacou)","group":"Piarco FIR (TTZP)","controlled":false,"twr":null,"twr_name":null,"twr_freq":null}},{"type":"Feature","geometry":{"type":"Point","coordinates":[-62.71868583333333,17.311180833333335]},"properties":{"icao":"TKPK","name":"R.L. Bradshaw Int’l (St Kitts)","group":"Piarco FIR (TTZP)","controlled":true,"twr":"TKPK_TWR","twr_name":"Bradshaw Tower","twr_freq":"118.300"}},{"type":"Feature","geometry":{"type":"Point","coordinates":[-62.59,17.205641944444444]},"properties":{"icao":"TKPN","name":"Vance W. Amory Int’l (Nevis)","group":"Piarco FIR (TTZP)","controlled":true,"twr":"TKPN_TWR","twr_name":"Amory Tower","twr_freq":"120.500"}},{"type":"Feature","geometry":{"type":"Point","coordinates":[-60.99305583333334,14.019999722222224]},"properties":{"icao":"TLPC","name":"George F.L. Charles (St Lucia)","group":"Piarco FIR (TTZP)","controlled":true,"twr":"TLPC_TWR","twr_name":"George Charles Tower","twr_freq":"118.000"}},{"type":"Feature","geometry":{"type":"Point","coordinates":[-60.95194388888889,13.733391944444444]},"properties":{"icao":"TLPL","name":"Hewanorra Int’l (St Lucia)","group":"Piarco FIR (TTZP)","controlled":true,"twr":"TLPL_TWR","twr_name":"Hewanorra Tower","twr_freq":"118.300"}},{"type":"Feature","geometry":{"type":"Point","coordinates":[-62.193396944444444,16.79133888888889]},"properties":{"icao":"TRPG","name":"John A. Osborne (Montserrat)","group":"Piarco FIR (TTZP)","controlled":true,"twr":"TRPG_TWR","twr_name":"John A. Osborne Tower","twr_freq":"118.800"}},{"type":"Feature","geometry":{"type":"Point","coordinates":[-60.83222194444445,11.149721944444444]},"properties":{"icao":"TTCP","name":"A.N.R. Robinson Int’l (Tobago)","group":"Piarco FIR (TTZP)","controlled":true,"twr":"TTCP_TWR","twr_name":"Robinson Tower","twr_freq":"118.400"}},{"type":"Feature","geometry":{"type":"Point","coordinates":[-61.337221944444444,10.595277777777778]},"properties":{"icao":"TTPP","name":"Piarco Int’l (Trinidad)","group":"Piarco FIR (TTZP)","controlled":true,"twr":"TTPP_TWR","twr_name":"Piarco Tower","twr_freq":"118.100"}},{"type":"Feature","geometry":{"type":"Point","coordinates":[-61.148610833333336,13.16]},"properties":{"icao":"TVSA","name":"Argyle Int’l (St Vincent)","group":"Piarco FIR (TTZP)","controlled":true,"twr":"TVSA_TWR","twr_name":"Argyle Tower","twr_freq":"118.800"}},{"type":"Feature","geometry":{"type":"Point","coordinates":[-61.26222194444444,12.988610833333333]},"properties":{"icao":"TVSB","name":"J.F. Mitchell (Bequia)","group":"Piarco FIR (TTZP)","controlled":true,"twr":"TVSB_TWR","twr_name":"J.F. Mitchell Tower","twr_freq":"118.450"}},{"type":"Feature","geometry":{"type":"Point","coordinates":[-61.34506694444445,12.700796944444443]},"properties":{"icao":"TVSC","name":"Canouan","group":"Piarco FIR (TTZP)","controlled":true,"twr":"TVSC_TWR","twr_name":"Canouan Tower","twr_freq":"118.050"}},{"type":"Feature","geometry":{"type":"Point","coordinates":[-61.17999972222222,12.887777777777778]},"properties":{"icao":"TVSM","name":"Mustique","group":"Piarco FIR (TTZP)","controlled":true,"twr":"TVSM_TWR","twr_name":"Mustique Tower","twr_freq":"123.000"}},{"type":"Feature","geometry":{"type":"Point","coordinates":[-61.414721944444445,12.598610833333334]},"properties":{"icao":"TVSU","name":"Union Island","group":"Piarco FIR (TTZP)","controlled":true,"twr":"TVSU_TWR","twr_name":"Union Island Tower","twr_freq":"122.800"}}]}