{"type":"FeatureCollection","features":[{"type":"Feature","geometry":{"type":"MultiPolygon","coordinates":[[[[-74,14.333333333333334],[-71.7103,12.710999999999999],[-71.70556722222223,12.756660555555555],[-71.64310694444445,13.011140277777777],[-71.54070805555556,13.25317138888889],[-71.40088194444445,13.47675361111111],[-71.22706027777778,13.676326388888889],[-71.02351305555555,13.846911666666667],[-70.79524638888888,13.984242777777776],[-70.54788055555555,14.084877777777779],[-70.28751027777777,14.146288888888888],[-70.02055555555556,14.1669325],[-69.75360083333334,14.146288888888888],[-69.66770000000001,14.143066666666666],[-67.4923,13.6764],[-67.06666666666666,15.683333333333334],[-68,16],[-71.66666666666667,16],[-71.66666666666667,17],[-73,17],[-74,16],[-74,15],[-74,14.333333333333334]]],[[[-71.41666666666667,12.5],[-71.7103,12.710999999999999],[-71.70556722222223,12.756660555555555],[-71.64310694444445,13.011140277777777],[-71.54070805555556,13.25317138888889],[-71.40088194444445,13.47675361111111],[-71.22706027777778,13.676326388888889],[-71.02351305555555,13.846911666666667],[-70.79524638888888,13.984242777777776],[-70.54788055555555,14.084877777777779],[-70.28751027777777,14.146288888888888],[-70.02055555555556,14.1669325],[-69.75360083333334,14.146288888888888],[-69.66770000000001,14.143066666666666],[-67.4923,13.6764],[-67.96666666666667,11.4],[-68.78283,11.75785],[-69.33914999999999,11.999899999999998],[-69.74701,12.17638],[-70.44028,12.47444],[-70.5,12.5],[-71.41666666666667,12.5]]]]},"properties":{"id":"TNCF_CTR-UIR-0","name":"Curaçao UIR (Upper)","group":"Curaçao FIR (TNCF)","type":"UIR","class":"A","floor_ft":19500,"ceil_ft":60000,"floor_label":"FL195","ceil_label":"FL600","bands":"[[\"A\",\"FL195\",\"FL600\"]]","station":"TNCF_CTR","station_name":"Curaçao Control","frequency":"127.100","color":"#4263eb","schematic":false,"note":null}},{"type":"Feature","geometry":{"type":"Polygon","coordinates":[[[-74,14.333333333333334],[-71.7103,12.710999999999999],[-71.70556722222223,12.756660555555555],[-71.64310694444445,13.011140277777777],[-71.54070805555556,13.25317138888889],[-71.40088194444445,13.47675361111111],[-71.22706027777778,13.676326388888889],[-71.02351305555555,13.846911666666667],[-70.79524638888888,13.984242777777776],[-70.54788055555555,14.084877777777779],[-70.28751027777777,14.146288888888888],[-70.02055555555556,14.1669325],[-69.75360083333334,14.146288888888888],[-69.66770000000001,14.143066666666666],[-67.4923,13.6764],[-67.06666666666666,15.683333333333334],[-68,16],[-71.66666666666667,16],[-71.66666666666667,17],[-73,17],[-74,16],[-74,15],[-74,14.333333333333334]]]},"properties":{"id":"TNCF_CTR-FIR-1","name":"Curaçao FIR (Lower)","group":"Curaçao FIR (TNCF)","type":"FIR","class":"E / G","floor_ft":0,"ceil_ft":19500,"floor_label":"SFC","ceil_label":"FL195","bands":"[[\"E\",\"2,500 ft\",\"FL195\"],[\"G\",\"SFC\",\"2,500 ft\"]]","station":"TNCF_CTR","station_name":"Curaçao Control","frequency":"127.100","color":"#4263eb","schematic":false,"note":null}},{"type":"Feature","geometry":{"type":"Polygon","coordinates":[[[-71.41666666666667,12.5],[-71.7103,12.710999999999999],[-71.70556722222223,12.756660555555555],[-71.64310694444445,13.011140277777777],[-71.54070805555556,13.25317138888889],[-71.40088194444445,13.47675361111111],[-71.22706027777778,13.676326388888889],[-71.02351305555555,13.846911666666667],[-70.79524638888888,13.984242777777776],[-70.54788055555555,14.084877777777779],[-70.28751027777777,14.146288888888888],[-70.02055555555556,14.1669325],[-69.75360083333334,14.146288888888888],[-69.66770000000001,14.143066666666666],[-67.4923,13.6764],[-67.96666666666667,11.4],[-68.78283,11.75785],[-69.33914999999999,11.999899999999998],[-69.74701,12.17638],[-70.44028,12.47444],[-70.5,12.5],[-71.41666666666667,12.5]]]},"properties":{"id":"TNCF_APP-TMA-2","name":"Curaçao TMA","group":"Curaçao FIR (TNCF)","type":"TMA","class":"A / E / G","floor_ft":0,"ceil_ft":24500,"floor_label":"SFC","ceil_label":"FL245","bands":"[[\"A\",\"FL195\",\"FL245\"],[\"E\",\"2,500 ft\",\"FL195\"],[\"G\",\"SFC\",\"2,500 ft\"]]","station":"TNCF_APP","station_name":"Curaçao Terminal","frequency":"119.800","color":"#12b886","schematic":false,"note":null}},{"type":"Feature","geometry":{"type":"MultiPolygon","coordinates":[[[[-62.888333333333335,18.15],[-63.25611111111111,18.15],[-63.27583333333333,18.092222222222222],[-63.28245416666667,18.06681111111111],[-63.28461055555555,18.040754444444445],[-63.28245416666667,18.014701666666667],[-63.2760375,17.98929388888889],[-63.26551888888889,17.965156944444445],[-63.251156944444446,17.94288361111111],[-63.23330583333333,17.923022222222222],[-63.212404722222225,17.90606083333333],[-63.18896861111111,17.89241611111111],[-63.16357388888889,17.882423055555556],[-63.13684638888889,17.876327777777778],[-63.10944444444445,17.874278888888888],[-63.08204222222223,17.876327777777778],[-63.055315,17.882423055555556],[-63.029920555555556,17.89241611111111],[-63.00648416666667,17.90606083333333],[-62.98558305555556,17.923022222222222],[-62.967731944444445,17.94288361111111],[-62.95337,17.965156944444445],[-62.94305555555555,17.989166666666666],[-62.92111111111111,18.053611111111113],[-62.888333333333335,18.15]]],[[[-62.38333333333333,17.783333333333335],[-62.86666666666667,18.416666666666668],[-63.666666666666664,18.416666666666668],[-63.666666666666664,17.6],[-62.9,17.433333333333334],[-62.74166666666667,17.52777777777778],[-62.38333333333333,17.783333333333335]]]]},"properties":{"id":"TNCM_APP-TMA-3","name":"Juliana TMA","group":"Juliana TMA (TNCM)","type":"TMA","class":"D / G","floor_ft":0,"ceil_ft":15000,"floor_label":"SFC","ceil_label":"15,000 ft","bands":"[[\"D\",\"2,600 ft\",\"15,000 ft\"],[\"G\",\"SFC\",\"2,600 ft\"]]","station":"TNCM_APP","station_name":"Juliana Approach","frequency":"128.950","color":"#12b886","schematic":false,"note":null}},{"type":"Feature","geometry":{"type":"Polygon","coordinates":[[[-70.01527777777778,12.551355277777779],[-70.02328388888888,12.550739722222223],[-70.03109305555556,12.548909166666666],[-70.03851277777778,12.545908055555556],[-70.04536055555555,12.541810833333333],[-70.05146722222221,12.536718055555555],[-70.05668305555555,12.530755277777779],[-70.06087944444444,12.524069444444445],[-70.06395277777777,12.516825],[-70.06582722222223,12.509200555555555],[-70.0664575,12.501383888888888],[-70.06582722222223,12.493567777777777],[-70.06395277777777,12.485943888888889],[-70.06087944444444,12.478700833333333],[-70.05668305555555,12.472016388888889],[-70.05146722222221,12.466054999999999],[-70.04536055555555,12.46096361111111],[-70.03851277777778,12.456867777777777],[-70.03109305555556,12.453867777777777],[-70.02328388888888,12.452037777777777],[-70.01527777777778,12.4514225],[-70.0072713888889,12.452037777777777],[-69.99946222222222,12.453867777777777],[-69.99204277777778,12.456867777777777],[-69.985195,12.46096361111111],[-69.97908805555556,12.466054999999999],[-69.9738725,12.472016388888889],[-69.96967638888889,12.478700833333333],[-69.96660305555555,12.485943888888889],[-69.96472805555555,12.493567777777777],[-69.96409805555555,12.501383888888888],[-69.96472805555555,12.509200555555555],[-69.96660305555555,12.516825],[-69.96967638888889,12.524069444444445],[-69.9738725,12.530755277777779],[-69.97908805555556,12.536718055555555],[-69.985195,12.541810833333333],[-69.99204277777778,12.545908055555556],[-69.99946222222222,12.548909166666666],[-70.0072713888889,12.550739722222223],[-70.01527777777778,12.551355277777779]]]},"properties":{"id":"TNCA_TWR-ATZ-4","name":"Beatrix ATZ","group":"Curaçao FIR (TNCF)","type":"ATZ","class":"B","floor_ft":0,"ceil_ft":2000,"floor_label":"SFC","ceil_label":"2,000 ft","bands":"[[\"B\",\"SFC\",\"2,000 ft\"]]","station":"TNCA_TWR","station_name":"Beatrix Tower","frequency":"118.000","color":"#f76707","schematic":false,"note":null}},{"type":"Feature","geometry":{"type":"Polygon","coordinates":[[[-70.44028,12.47444],[-70.44172888888889,12.501047222222223],[-70.43647805555555,12.566191944444444],[-70.42085527777778,12.629748611111111],[-70.39524472222223,12.690150277777779],[-70.36027722222222,12.745907222222222],[-70.31681333333333,12.795642777777777],[-70.26592305555556,12.838128888888889],[-70.20885972222223,12.872315555555556],[-70.14702805555557,12.897356944444445],[-70.08195111111111,12.91263388888889],[-70.01523083333333,12.91776861111111],[-69.94851055555556,12.91263388888889],[-69.88343361111112,12.897356944444445],[-69.82160194444444,12.872315555555556],[-69.7645386111111,12.838128888888889],[-69.71364833333334,12.795642777777777],[-69.67018444444444,12.745907222222222],[-69.63521694444445,12.690150277777779],[-69.60960638888888,12.629748611111111],[-69.59398361111111,12.566191944444444],[-69.58873277777778,12.501047222222223],[-69.59398361111111,12.435918888888889],[-69.60960638888888,12.372410277777778],[-69.63521694444445,12.312082777777778],[-69.67018444444444,12.256419444444445],[-69.71364833333334,12.206787222222221],[-69.74701,12.17638],[-70.44028,12.47444]]]},"properties":{"id":"TNCA_APP-CTR-5","name":"Beatrix CTR","group":"Curaçao FIR (TNCF)","type":"CTR","class":"D","floor_ft":0,"ceil_ft":6500,"floor_label":"SFC","ceil_label":"6,500 ft","bands":"[[\"D\",\"SFC\",\"6,500 ft\"]]","station":"TNCA_APP","station_name":"Beatrix Approach","frequency":"120.900","color":"#12b886","schematic":false,"note":null}},{"type":"Feature","geometry":{"type":"Polygon","coordinates":[[[-68.26722222222222,12.230488055555556],[-68.25123222222223,12.229257222222222],[-68.2356361111111,12.225595277777778],[-68.2208175,12.219592222222222],[-68.20714166666667,12.211396388888888],[-68.19494527777778,12.201209166666667],[-68.18452861111112,12.189282222222223],[-68.17614805555556,12.175909166666665],[-68.17001,12.161419444444444],[-68.16626555555555,12.146170277777777],[-68.16500722222223,12.130536944444446],[-68.16626555555555,12.114904444444445],[-68.17001,12.099657777777779],[-68.17614805555556,12.085172222222223],[-68.18452861111112,12.071804444444444],[-68.19494527777778,12.059883055555556],[-68.20714166666667,12.049701944444445],[-68.2208175,12.041511111111111],[-68.2356361111111,12.035512222222222],[-68.25123222222223,12.031852777777779],[-68.26722222222222,12.030623055555557],[-68.28321222222222,12.031852777777779],[-68.29880833333333,12.035512222222222],[-68.31362694444444,12.041511111111111],[-68.32730277777777,12.049701944444445],[-68.33949916666666,12.059883055555556],[-68.34991583333333,12.071804444444444],[-68.35829638888889,12.085172222222223],[-68.36443444444444,12.099657777777779],[-68.3681786111111,12.114904444444445],[-68.36943722222222,12.130536944444446],[-68.3681786111111,12.146170277777777],[-68.36443444444444,12.161419444444444],[-68.35829638888889,12.175909166666665],[-68.34991583333333,12.189282222222223],[-68.33949916666666,12.201209166666667],[-68.32730277777777,12.211396388888888],[-68.31362694444444,12.219592222222222],[-68.29880833333333,12.225595277777778],[-68.28321222222222,12.229257222222222],[-68.26722222222222,12.230488055555556]]]},"properties":{"id":"TNCB_TWR-ATZ-6","name":"Flamingo ATZ","group":"Curaçao FIR (TNCF)","type":"ATZ","class":"B","floor_ft":0,"ceil_ft":2500,"floor_label":"SFC","ceil_label":"2,500 ft","bands":"[[\"B\",\"SFC\",\"2,500 ft\"]]","station":"TNCB_TWR","station_name":"Flamingo Tower","frequency":"118.700","color":"#f76707","schematic":false,"note":null}},{"type":"Feature","geometry":{"type":"Polygon","coordinates":[[[-68.53332999999999,12.56973],[-68.26741888888888,12.54719361111111],[-68.20079277777778,12.542059166666666],[-68.13580750000001,12.526782777777779],[-68.07406305555556,12.5017425],[-68.01708027777778,12.4675575],[-67.96626194444444,12.425073055555554],[-67.92285944444446,12.375338888888889],[-67.88794111111112,12.319583333333332],[-67.86236694444443,12.259182777777777],[-67.84676611111111,12.195626944444445],[-67.84152277777777,12.130482500000001],[-67.84676611111111,12.06535388888889],[-67.86236694444443,12.001844444444444],[-67.88794111111112,11.941515833333334],[-67.92285944444446,11.88585111111111],[-67.96626194444444,11.836217222222222],[-68.01708027777778,11.793833333333334],[-68.07406305555556,11.759738888888888],[-68.13580750000001,11.734770555555555],[-68.20079277777778,11.719540555555556],[-68.26741888888888,11.714421944444444],[-68.53332999999999,11.736949999999998],[-68.53332999999999,12.56973]]]},"properties":{"id":"TNCF_APP-CTR-7","name":"Flamingo CTR","group":"Curaçao FIR (TNCF)","type":"CTR","class":"D","floor_ft":0,"ceil_ft":6500,"floor_label":"SFC","ceil_label":"6,500 ft","bands":"[[\"D\",\"SFC\",\"6,500 ft\"]]","station":"TNCF_APP","station_name":"Curaçao Terminal","frequency":"119.800","color":"#12b886","schematic":false,"note":null}},{"type":"Feature","geometry":{"type":"Polygon","coordinates":[[[-62.88583333333333,18.010555555555555],[-62.98888888888889,18.022777777777776],[-63.03055555555555,18.071944444444444],[-63.03297861111111,18.07087472222222],[-63.03805944444444,18.068874722222223],[-63.04340666666666,18.067654722222223],[-63.04888888888889,18.06724472222222],[-63.05437111111111,18.067654722222223],[-63.05971861111111,18.068874722222223],[-63.06479888888889,18.07087472222222],[-63.06948805555556,18.073605277777776],[-63.07366944444445,18.076999722222222],[-63.077241111111114,18.080973888888888],[-63.08011444444445,18.08543027777778],[-63.08221888888889,18.090258888888886],[-63.08350277777778,18.095341388888887],[-63.08393388888889,18.100552222222223],[-63.08388888888889,18.100833333333334],[-63.083333333333336,18.15],[-63,18.15],[-62.88583333333333,18.010555555555555]]]},"properties":{"id":"TNCM_APP-APP-8","name":"Grand Case TAR","group":"Juliana TMA (TNCM)","type":"APP","class":"G","floor_ft":0,"ceil_ft":2600,"floor_label":"SFC","ceil_label":"2,600 ft","bands":"[[\"G\",\"SFC\",\"2,600 ft\"]]","station":"TNCM_APP","station_name":"Juliana Approach","frequency":"128.950","color":"#12b886","schematic":false,"note":null}},{"type":"Feature","geometry":{"type":"Polygon","coordinates":[[[-68.95972222222223,12.28882138888889],[-68.9437288888889,12.287590555555555],[-68.92812916666666,12.283928611111111],[-68.91330722222223,12.277925555555557],[-68.89962861111111,12.269729444444446],[-68.88742944444445,12.2595425],[-68.87701055555554,12.247615555555555],[-68.86862805555555,12.234242222222221],[-68.8624886111111,12.219752777777778],[-68.85874361111111,12.204503611111111],[-68.85748472222221,12.18887],[-68.85874361111111,12.173237777777777],[-68.8624886111111,12.157991111111112],[-68.86862805555555,12.143505555555555],[-68.87701055555554,12.130137777777778],[-68.88742944444445,12.11821638888889],[-68.89962861111111,12.108035277777777],[-68.91330722222223,12.099844444444445],[-68.92812916666666,12.093845555555555],[-68.9437288888889,12.090186111111112],[-68.95972222222223,12.088956388888889],[-68.97571555555555,12.090186111111112],[-68.99131527777777,12.093845555555555],[-69.00613694444445,12.099844444444445],[-69.01981583333333,12.108035277777777],[-69.032015,12.11821638888889],[-69.0424338888889,12.130137777777778],[-69.05081638888889,12.143505555555555],[-69.05695555555555,12.157991111111112],[-69.06070083333333,12.173237777777777],[-69.06195972222221,12.18887],[-69.06070083333333,12.204503611111111],[-69.05695555555555,12.219752777777778],[-69.05081638888889,12.234242222222221],[-69.0424338888889,12.247615555555555],[-69.032015,12.2595425],[-69.01981583333333,12.269729444444446],[-69.00613694444445,12.277925555555557],[-68.99131527777777,12.283928611111111],[-68.97571555555555,12.287590555555555],[-68.95972222222223,12.28882138888889]]]},"properties":{"id":"TNCC_TWR-ATZ-9","name":"Hato ATZ","group":"Curaçao FIR (TNCF)","type":"ATZ","class":"B","floor_ft":0,"ceil_ft":2000,"floor_label":"SFC","ceil_label":"2,000 ft","bands":"[[\"B\",\"SFC\",\"2,000 ft\"]]","station":"TNCC_TWR","station_name":"Hato Tower","frequency":"118.300","color":"#f76707","schematic":false,"note":null}},{"type":"Feature","geometry":{"type":"Polygon","coordinates":[[[-69.33914999999999,11.999899999999998],[-68.78283,11.75785],[-68.53332999999999,11.736949999999998],[-68.53332999999999,12.56973],[-68.95969194444444,12.605299722222222],[-69.0263325,12.600165277777778],[-69.09133194444443,12.584888888888889],[-69.15308972222223,12.559848333333335],[-69.21008527777778,12.525663055555556],[-69.26091472222222,12.483178333333333],[-69.30432666666667,12.433443888888888],[-69.33925277777777,12.377688055555556],[-69.36483249999999,12.317287499999999],[-69.38043666666665,12.25373138888889],[-69.38568111111111,12.188586944444445],[-69.38043666666665,12.123458611111111],[-69.36483249999999,12.059949166666668],[-69.33914999999999,11.999899999999998]]]},"properties":{"id":"TNCF_APP-CTR-10","name":"Hato CTR","group":"Curaçao FIR (TNCF)","type":"CTR","class":"C / D","floor_ft":0,"ceil_ft":6500,"floor_label":"SFC","ceil_label":"6,500 ft","bands":"[[\"C\",\"2,000 ft\",\"6,500 ft\"],[\"D\",\"SFC\",\"2,000 ft\"]]","station":"TNCF_APP","station_name":"Curaçao Terminal","frequency":"119.800","color":"#12b886","schematic":false,"note":null}},{"type":"Feature","geometry":{"type":"Polygon","coordinates":[[[-62.888333333333335,18.15],[-63.25611111111111,18.15],[-63.27583333333333,18.092222222222222],[-63.28245416666667,18.06681111111111],[-63.28461055555555,18.040754444444445],[-63.28245416666667,18.014701666666667],[-63.2760375,17.98929388888889],[-63.26551888888889,17.965156944444445],[-63.251156944444446,17.94288361111111],[-63.23330583333333,17.923022222222222],[-63.212404722222225,17.90606083333333],[-63.18896861111111,17.89241611111111],[-63.16357388888889,17.882423055555556],[-63.13684638888889,17.876327777777778],[-63.10944444444445,17.874278888888888],[-63.08204222222223,17.876327777777778],[-63.055315,17.882423055555556],[-63.029920555555556,17.89241611111111],[-63.00648416666667,17.90606083333333],[-62.98558305555556,17.923022222222222],[-62.967731944444445,17.94288361111111],[-62.95337,17.965156944444445],[-62.94305555555555,17.989166666666666],[-62.92111111111111,18.053611111111113],[-62.888333333333335,18.15]]]},"properties":{"id":"TNCM_TWR-CTR-11","name":"Juliana CTR","group":"Juliana TMA (TNCM)","type":"CTR","class":"C","floor_ft":0,"ceil_ft":5500,"floor_label":"SFC","ceil_label":"5,500 ft","bands":"[[\"C\",\"SFC\",\"5,500 ft\"]]","station":"TNCM_TWR","station_name":"Juliana Tower","frequency":"118.700","color":"#f76707","schematic":false,"note":null}},{"type":"Feature","geometry":{"type":"Polygon","coordinates":[[[-62.888333333333335,18.15],[-63.25611111111111,18.15],[-63.220555555555556,18.25583333333333],[-63.21010944444445,18.280273055555554],[-63.19573416666666,18.302568055555557],[-63.17786638888889,18.322453888888887],[-63.15694555555555,18.33944],[-63.13348722222222,18.353106944444445],[-63.10806916666667,18.363117222222222],[-63.08131666666667,18.36922388888889],[-63.053888888888885,18.371276666666667],[-63.02646111111111,18.36922388888889],[-62.99970861111111,18.363117222222222],[-62.97429027777778,18.353106944444445],[-62.950832222222225,18.33944],[-62.92991138888889,18.322453888888887],[-62.91204361111111,18.302568055555557],[-62.897668333333336,18.280273055555554],[-62.88713972222222,18.256118333333333],[-62.88071722222222,18.230699444444443],[-62.87855861111111,18.204642777777778],[-62.88071722222222,18.178589722222224],[-62.88722222222222,18.15361111111111],[-62.888333333333335,18.15]]]},"properties":{"id":"TQPF_TWR-CTR-12","name":"C.J. Lloyd CTR (Anguilla)","group":"Juliana TMA (TNCM)","type":"CTR","class":"D","floor_ft":0,"ceil_ft":2600,"floor_label":"SFC","ceil_label":"2,600 ft","bands":"[[\"D\",\"SFC\",\"2,600 ft\"]]","station":"TQPF_TWR","station_name":"CJ Lloyd Tower","frequency":"118.500","color":"#f76707","schematic":false,"note":null}},{"type":"Feature","geometry":{"type":"Polygon","coordinates":[[[-63.220575000000004,17.728646666666666],[-63.20690444444445,17.72762111111111],[-63.19357055555555,17.724568888888886],[-63.180901388888884,17.71956611111111],[-63.16920916666666,17.712735555555554],[-63.15878194444444,17.70424583333333],[-63.14987611111111,17.69430611111111],[-63.14271111111111,17.68316138888889],[-63.137463333333336,17.671086111111112],[-63.13426222222222,17.658378055555556],[-63.13318638888889,17.645350277777776],[-63.13426222222222,17.632323333333336],[-63.137463333333336,17.619618055555556],[-63.14271111111111,17.607547222222223],[-63.14987611111111,17.596407777777777],[-63.15878194444444,17.586474166666665],[-63.16920916666666,17.57799027777778],[-63.180901388888884,17.571165],[-63.19357055555555,17.566166388888888],[-63.20690444444445,17.56311722222222],[-63.220575000000004,17.562092500000002],[-63.23424583333333,17.56311722222222],[-63.24757972222222,17.566166388888888],[-63.26024888888889,17.571165],[-63.27194083333333,17.57799027777778],[-63.28236833333333,17.586474166666665],[-63.29127416666667,17.596407777777777],[-63.29843916666667,17.607547222222223],[-63.303686666666664,17.619618055555556],[-63.306888055555554,17.632323333333336],[-63.307963888888885,17.645350277777776],[-63.306888055555554,17.658378055555556],[-63.303686666666664,17.671086111111112],[-63.29843916666667,17.68316138888889],[-63.29127416666667,17.69430611111111],[-63.28236833333333,17.70424583333333],[-63.27194083333333,17.712735555555554],[-63.26024888888889,17.71956611111111],[-63.24757972222222,17.724568888888886],[-63.23424583333333,17.72762111111111],[-63.220575000000004,17.728646666666666]]]},"properties":{"id":"UNCTL-ATZ-13","name":"Saba ATZ","group":"Juliana TMA (TNCM)","type":"ATZ","class":"G","floor_ft":0,"ceil_ft":2000,"floor_label":"SFC","ceil_label":"2,000 ft","bands":"[[\"G\",\"SFC\",\"2,000 ft\"]]","station":null,"station_name":"Uncontrolled","frequency":null,"color":"#868e96","schematic":false,"note":null}},{"type":"Feature","geometry":{"type":"Polygon","coordinates":[[[-62.88583333333333,18.010555555555555],[-62.98888888888889,18.022777777777776],[-62.87083333333334,17.883333333333333],[-62.868364166666666,17.88088861111111],[-62.86418722222222,17.877494444444444],[-62.859503611111116,17.87476361111111],[-62.85442861111111,17.87276361111111],[-62.849087222222224,17.87154361111111],[-62.843611111111116,17.871133611111112],[-62.838135,17.87154361111111],[-62.832793611111114,17.87276361111111],[-62.827718611111116,17.87476361111111],[-62.823035000000004,17.877494444444444],[-62.81885805555556,17.88088861111111],[-62.81529055555555,17.884862777777776],[-62.812420277777775,17.889319166666667],[-62.810318055555555,17.894148055555554],[-62.80903583333333,17.899230555555555],[-62.80860472222222,17.904441388888888],[-62.80903583333333,17.90965222222222],[-62.810318055555555,17.914735277777776],[-62.812420277777775,17.919564722222223],[-62.81529055555555,17.924021944444444],[-62.816111111111105,17.925],[-62.88583333333333,18.010555555555555]]]},"properties":{"id":"TNCM_APP-APP-14","name":"St Barthélemy TAR","group":"Juliana TMA (TNCM)","type":"APP","class":"G","floor_ft":0,"ceil_ft":2600,"floor_label":"SFC","ceil_label":"2,600 ft","bands":"[[\"G\",\"SFC\",\"2,600 ft\"]]","station":"TNCM_APP","station_name":"Juliana Approach","frequency":"128.950","color":"#12b886","schematic":false,"note":null}},{"type":"Feature","geometry":{"type":"Polygon","coordinates":[[[-62.97949722222222,17.57979388888889],[-62.96583805555556,17.578768333333333],[-62.952515000000005,17.57571611111111],[-62.939856388888884,17.570713333333334],[-62.928173611111106,17.563882777777778],[-62.917755,17.555393055555555],[-62.908856388888886,17.545453333333334],[-62.9016975,17.53430861111111],[-62.896454166666665,17.522233611111112],[-62.893255555555555,17.509525555555555],[-62.892180555555555,17.49649777777778],[-62.893255555555555,17.483470833333335],[-62.896454166666665,17.470765555555555],[-62.9016975,17.458694722222223],[-62.908856388888886,17.447555277777777],[-62.917755,17.43762138888889],[-62.928173611111106,17.4291375],[-62.939856388888884,17.422312222222224],[-62.952515000000005,17.417313611111112],[-62.96583805555556,17.41426444444444],[-62.97949722222222,17.413239722222222],[-62.99315666666667,17.41426444444444],[-63.006479722222224,17.417313611111112],[-63.01913833333333,17.422312222222224],[-63.03082083333333,17.4291375],[-63.04123972222222,17.43762138888889],[-63.05013805555555,17.447555277777777],[-63.05729722222222,17.458694722222223],[-63.06254055555555,17.470765555555555],[-63.06573916666667,17.483470833333335],[-63.06681416666667,17.49649777777778],[-63.06573916666667,17.509525555555555],[-63.06254055555555,17.522233611111112],[-63.05729722222222,17.53430861111111],[-63.05013805555555,17.545453333333334],[-63.04123972222222,17.555393055555555],[-63.03082083333333,17.563882777777778],[-63.01913833333333,17.570713333333334],[-63.006479722222224,17.57571611111111],[-62.99315666666667,17.578768333333333],[-62.97949722222222,17.57979388888889]]]},"properties":{"id":"UNCTL-ATZ-15","name":"Statia ATZ","group":"Juliana TMA (TNCM)","type":"ATZ","class":"G","floor_ft":0,"ceil_ft":2000,"floor_label":"SFC","ceil_label":"2,000 ft","bands":"[[\"G\",\"SFC\",\"2,000 ft\"]]","station":null,"station_name":"Uncontrolled","frequency":null,"color":"#868e96","schematic":false,"note":null}},{"type":"Feature","geometry":{"type":"Polygon","coordinates":[[[-37.5,17],[-37.5,13.5],[-48,10],[-54,9.333333333333334],[-57,8.916666666666666],[-57,13.075],[-57,18],[-45.00000027777778,18],[-40,22.3],[-37.5,17]]]},"properties":{"id":"TTZO_FSS-OCEANIC-16","name":"Piarco Oceanic FIR","group":"Piarco FIR (TTZP)","type":"OCEANIC","class":"A","floor_ft":0,"ceil_ft":60000,"floor_label":"SFC","ceil_label":"FL600","bands":"[[\"A\",\"SFC\",\"FL600\"]]","station":"TTZO_FSS","station_name":"Piarco Oceanic","frequency":"126.500","color":"#0c8599","schematic":false,"note":"Procedural (non-radar) oceanic control extending east to 40°W."}},{"type":"Feature","geometry":{"type":"Polygon","coordinates":[[[-62.38333333333333,17.783333333333335],[-62.74166666666667,17.52777777777778],[-62.9,17.433333333333334],[-63,17.366666666666667],[-63,17.183333333333334],[-63,16.766666666666666],[-63,15.75],[-63,15.333333333333334],[-63.25,15],[-65,15],[-63.65472222222222,12.866666666666667],[-62.5,11],[-61.821111111111115,10.747499999999999],[-61.78333333333333,10.733333333333333],[-61.844722222222224,10.58388888888889],[-62.05,10.083333333333334],[-61.93333333333333,9.983333333333333],[-61.46666666666667,9.983333333333333],[-61.013888888888886,9.649444444444445],[-59.95,8.916666666666666],[-57,8.916666666666666],[-57,13.075],[-57,18],[-61,18],[-61.50000027777778,18],[-62,18],[-62.38333333333333,17.783333333333335]]]},"properties":{"id":"TTZP_CTR-UIR-17","name":"Piarco UTA (Upper)","group":"Piarco FIR (TTZP)","type":"UIR","class":"A","floor_ft":19500,"ceil_ft":60000,"floor_label":"FL195","ceil_label":"FL600","bands":"[[\"A\",\"FL195\",\"FL600\"]]","station":"TTZP_CTR","station_name":"Piarco Radar","frequency":"123.700","color":"#4263eb","schematic":false,"note":null}},{"type":"Feature","geometry":{"type":"Polygon","coordinates":[[[-62.38333333333333,17.783333333333335],[-62.74166666666667,17.52777777777778],[-62.9,17.433333333333334],[-63,17.366666666666667],[-63,17.183333333333334],[-63,16.766666666666666],[-63,15.75],[-63,15.333333333333334],[-63.25,15],[-65,15],[-63.65472222222222,12.866666666666667],[-62.5,11],[-61.821111111111115,10.747499999999999],[-61.78333333333333,10.733333333333333],[-61.844722222222224,10.58388888888889],[-62.05,10.083333333333334],[-61.93333333333333,9.983333333333333],[-61.46666666666667,9.983333333333333],[-61.013888888888886,9.649444444444445],[-59.95,8.916666666666666],[-57,8.916666666666666],[-57,13.075],[-57,18],[-61,18],[-61.50000027777778,18],[-62,18],[-62.38333333333333,17.783333333333335]]]},"properties":{"id":"TTZP_CTR-FIR-18","name":"Piarco FIR (Lower)","group":"Piarco FIR (TTZP)","type":"FIR","class":"D","floor_ft":0,"ceil_ft":19500,"floor_label":"SFC","ceil_label":"FL195","bands":"[[\"D\",\"SFC\",\"FL195\"]]","station":"TTZP_CTR","station_name":"Piarco Radar","frequency":"123.700","color":"#4263eb","schematic":false,"note":null}},{"type":"Feature","geometry":{"type":"Polygon","coordinates":[[[-62.38333333333333,17.783333333333335],[-62.74166666666667,17.52777777777778],[-62.9,17.433333333333334],[-63,17.366666666666667],[-63,17.183333333333334],[-63,16.766666666666666],[-62.391666666666666,16.5],[-61.25,16.833333333333332],[-60.766666666666666,17.416666666666668],[-61,18],[-61.50000027777778,18],[-62,18],[-62.38333333333333,17.783333333333335]]]},"properties":{"id":"TAPA_APP-TMA-19","name":"V.C. Bird TMA","group":"Piarco FIR (TTZP)","type":"TMA","class":"E","floor_ft":3000,"ceil_ft":24500,"floor_label":"3,000 ft","ceil_label":"FL245","bands":"[[\"E\",\"3,000 ft\",\"FL245\"]]","station":"TAPA_APP","station_name":"VC Bird Approach","frequency":"119.100","color":"#12b886","schematic":false,"note":null}},{"type":"Feature","geometry":{"type":"Polygon","coordinates":[[[-58.95596861111111,12.065352777777779],[-58.800399444444444,12.1578575],[-58.66166722222222,12.27288277777778],[-58.54318611111111,12.407623611111111],[-58.44787083333333,12.558791111111113],[-58.37806444444445,12.722689166666667],[-58.33548277777778,12.895304166666666],[-58.32117138888889,13.072400277777778],[-58.33548277777778,13.249623888888888],[-58.37806444444445,13.422607777777777],[-58.44787083333333,13.587081111111111],[-58.54318611111111,13.738973055555554],[-58.66166722222222,13.874517222222222],[-58.70805555555556,13.923055555555555],[-59.8,14.875],[-60.58388888888889,13.899166666666666],[-60.5692825,13.861668055555555],[-60.55358111111111,13.798108888888889],[-60.54830388888889,13.732963611111112],[-60.55358111111111,13.66783611111111],[-60.5692825,13.604329722222221],[-60.59502138888889,13.544006111111111],[-60.630164722222226,13.4883475],[-60.67384694444444,13.438720555555555],[-60.72499277777778,13.39634361111111],[-60.78234277777778,13.362255277777777],[-60.844485,13.337291944444445],[-60.909889166666666,13.322064722222223],[-60.99472222222222,13.315277777777778],[-60.615,12.708333333333332],[-60.474444444444444,12.482777777777779],[-60.424591666666664,12.407623611111111],[-60.3725,12.34388888888889],[-60.306110555555556,12.27288277777778],[-60.16737833333333,12.1578575],[-60.011808888888886,12.065352777777779],[-59.84323305555556,11.997621666666666],[-59.66580222222222,11.956312777777777],[-59.48388888888889,11.942430277777778],[-59.30197555555555,11.956312777777777],[-59.124544722222225,11.997621666666666],[-58.95596861111111,12.065352777777779]]]},"properties":{"id":"TBPB_APP-TMA-20","name":"Adams TMA (Barbados)","group":"Piarco FIR (TTZP)","type":"TMA","class":"A / D","floor_ft":0,"ceil_ft":24500,"floor_label":"SFC","ceil_label":"FL245","bands":"[[\"A\",\"8,500 ft\",\"FL245\"],[\"D\",\"SFC\",\"8,500 ft\"]]","station":"TBPB_APP","station_name":"Adams Approach","frequency":"129.350","color":"#12b886","schematic":false,"note":null}},{"type":"Feature","geometry":{"type":"Polygon","coordinates":[[[-61.94954310557523,14.899866311209973],[-61.948735479464496,14.896136317350004],[-61.66824950796152,14.035320051576772],[-61.66784261245211,14.034130507741867],[-61.501308312050575,13.570318702835475],[-61.49970197494495,13.566919296787594],[-61.49645651204632,13.564909363615389],[-60.998153961866,13.316990632845188],[-60.994651547098954,13.315624455072312],[-60.990878481917925,13.315585950241065],[-60.91306388500106,13.321811282950815],[-60.906791296015314,13.322786408569879],[-60.84766098794531,13.33655297880074],[-60.84146673299306,13.338504918269809],[-60.785365140049166,13.361041653679727],[-60.77955281991529,13.363914154428773],[-60.72778656940923,13.39468355745701],[-60.72250077870913,13.398408974043644],[-60.67634238778749,13.436653568088175],[-60.671715606313484,13.441142630208505],[-60.63229800202621,13.485924585216855],[-60.62844876013616,13.491065921522877],[-60.596738187891496,13.541287863477242],[-60.593764523465964,13.546952605657038],[-60.57053919889649,13.601385237640727],[-60.56851636025251,13.607429339735813],[-60.554346855188555,13.664739818016635],[-60.55332394865888,13.671010755520047],[-60.54856086771,13.729793111627032],[-60.5485606607336,13.736134140861228],[-60.553324570158026,13.794942770093636],[-60.55434383673652,13.801197216135177],[-60.56866947930212,13.859187213454865],[-60.56933056878561,13.861273376277378],[-60.57254119932259,13.876440973110695],[-60.57271813098274,13.891924536405007],[-60.56985427466842,13.907157365435173],[-60.5640538751128,13.921581822598183],[-60.55552877891293,13.934669759055913],[-59.80262814647997,14.871747656185363],[-59.80046746620846,14.875069939907116],[-59.80148750693535,14.878868090561085],[-59.890532503000216,15.110166491246982],[-60.29860975789906,16.163098226258384],[-60.30015107297668,16.16614614433577],[-60.30311179609457,16.164303470606885],[-61.94672990033443,14.902536817958843],[-61.94954310557523,14.899866311209973]],[[-60.86947995278231,14.171469887809002],[-60.85428724070322,14.172061545899178],[-60.83923605049884,14.169970496449384],[-60.82482623956403,14.16526618715629],[-60.81153629831379,14.158104849540772],[-60.799807419117045,14.148724294495274],[-60.70924906500538,14.061645604330685],[-60.69904564051341,14.049742632665641],[-60.69136586033904,14.036172629959578],[-60.68649033138156,14.021432270264599],[-60.68459690563367,14.006060960924037],[-60.685754247565185,13.990621084679258],[-60.6899194095278,13.975677416737813],[-60.69693949116632,13.961776471125978],[-60.706557309364364,13.949426530796185],[-60.71842086032213,13.93907908868728],[-60.73209621997908,13.931112373561067],[-60.74708340761087,13.925817557158886],[-60.762834633852016,13.923388140996765],[-60.77877427173227,13.923912905550846],[-61.16656588053087,13.9726599871382],[-61.18216086199135,13.976107104824344],[-61.196791699109255,13.98237873964881],[-61.209920758064555,13.991244472815762],[-61.2210654326114,14.002378548552572],[-61.229815859840045,14.015371812533845],[-61.23584999452692,14.029746714231964],[-61.23894548761267,14.044974827908726],[-61.238987927012495,14.060496253889546],[-61.235975128545704,14.075740191296598],[-61.23001730712197,14.09014592832991],[-61.221333108647926,14.103183478415424],[-61.21024163609149,14.114373101088376],[-61.19715075305563,14.123302985324509],[-61.18254208919766,14.129644439069503],[-61.16695329810667,14.133164019757205],[-60.86947995278231,14.171469887809002]]]},"properties":{"id":"TFFF_APP-TMA-21","name":"Martinique TMA","group":"Piarco FIR (TTZP)","type":"TMA","class":"A / D / E","floor_ft":1500,"ceil_ft":24500,"floor_label":"1,500 ft","ceil_label":"FL245","bands":"[[\"A\",\"FL195\",\"FL245\"],[\"D\",\"10,500 ft\",\"FL195\"],[\"D/E\",\"3,000 ft\",\"10,500 ft\"],[\"D\",\"1,500 ft\",\"3,000 ft\"]]","station":"TFFF_APP","station_name":"Martinique Approach","frequency":"121.000","color":"#12b886","schematic":false,"note":null}},{"type":"Feature","geometry":{"type":"Polygon","coordinates":[[[-62.999518962762444,15.750216528828501],[-62.99646586282841,15.747159864993426],[-61.953151669666084,14.90256971816185],[-61.9499941167963,14.900471219234449],[-61.94678507179295,14.902495676737393],[-60.30342870815061,16.164064526578933],[-60.30050000398262,16.166804910170708],[-60.3014632206725,16.17062133653639],[-60.536087438082184,16.802714205976855],[-60.76527941424028,17.412984903061265],[-60.766779537836705,17.416011595855196],[-60.76921630812206,17.413602118307747],[-61.23351844743069,16.853303408200052],[-61.24545528391862,16.841524110367413],[-61.25962765217304,16.832290257149644],[-61.27545334741806,16.825981009717605],[-62.36087240755489,16.509086158921914],[-62.37591162421514,16.506052679867814],[-62.391275133842186,16.505682525047074],[-62.40645436473238,16.507987939287855],[-62.42094682620789,16.512892597536663],[-62.996153671251186,16.764988504959028],[-62.99963331124852,16.76612096198719],[-62.99999943628326,16.762619859847376],[-62.99999938666434,15.754431217063413],[-62.999518962762444,15.750216528828501]]]},"properties":{"id":"TFFR_APP-TMA-22","name":"Raizet TMA","group":"Piarco FIR (TTZP)","type":"TMA","class":"A / D / E","floor_ft":2500,"ceil_ft":24500,"floor_label":"2,500 ft","ceil_label":"FL245","bands":"[[\"A\",\"FL195\",\"FL245\"],[\"D\",\"10,500 ft\",\"FL195\"],[\"D/E\",\"3,000 ft\",\"10,500 ft\"],[\"D\",\"2,500 ft\",\"3,000 ft\"]]","station":"TFFR_APP","station_name":"Raizet Approach","frequency":"121.300","color":"#12b886","schematic":false,"note":null}},{"type":"Feature","geometry":{"type":"Polygon","coordinates":[[[-60.615,12.708333333333332],[-60.474444444444444,12.482777777777779],[-60.424591666666664,12.407623611111111],[-60.3725,12.34388888888889],[-61.49666666666667,11.587777777777779],[-61.55336111111111,11.556369444444446],[-61.62741888888889,11.526415277777778],[-61.70536444444445,11.508144166666666],[-61.78527777777778,11.50200361111111],[-61.86519111111111,11.508144166666666],[-61.94313638888889,11.526415277777778],[-62.01719444444444,11.556369444444446],[-62.08554111111111,11.597272777777778],[-62.14649361111111,11.6481225],[-62.19855111111111,11.707671666666666],[-62.240432500000004,11.774459444444446],[-62.27110638888889,11.846845277777778],[-62.28981833333333,11.923051388888888],[-62.29610722222222,12.00120361111111],[-62.28981833333333,12.079378333333333],[-62.27110638888889,12.155650277777777],[-62.243611111111115,12.222777777777777],[-61.96388888888889,12.783888888888889],[-61.21361111111111,12.42861111111111],[-60.615,12.708333333333332]]]},"properties":{"id":"TGPY_APP-TMA-23","name":"Maurice Bishop TMA","group":"Piarco FIR (TTZP)","type":"TMA","class":"E","floor_ft":5500,"ceil_ft":13500,"floor_label":"5,500 ft","ceil_label":"13,500 ft","bands":"[[\"E\",\"5,500 ft\",\"13,500 ft\"]]","station":"TGPY_APP","station_name":"Maurice Bishop Approach","frequency":"119.400","color":"#12b886","schematic":false,"note":null}},{"type":"Feature","geometry":{"type":"Polygon","coordinates":[[[-62.5,11],[-61.04805555555556,11.621111111111112],[-60.99550027777778,11.63628638888889],[-60.91556472222222,11.6551475],[-60.83361111111111,11.661486944444444],[-60.75165722222222,11.6551475],[-60.67172194444444,11.63628638888889],[-60.595773333333334,11.605370555555556],[-60.52568194444444,11.563164722222224],[-60.46317305555556,11.510713611111111],[-60.40978638888889,11.449313611111112],[-60.36683583333333,11.380481666666666],[-60.33537888888889,11.305917500000001],[-60.31618944444444,11.227460833333334],[-60.30974,11.147045555555556],[-60.31618944444444,11.066652777777778],[-60.33537888888889,10.988260555555554],[-60.3425,10.967777777777778],[-60.731944444444444,9.943888888888889],[-60.86833333333333,9.809722222222224],[-61.013888888888886,9.649444444444445],[-61.46666666666667,9.983333333333333],[-61.93333333333333,9.983333333333333],[-62.05,10.083333333333334],[-61.844722222222224,10.58388888888889],[-61.78333333333333,10.733333333333333],[-61.821111111111115,10.747499999999999],[-62.5,11]]]},"properties":{"id":"TTPP_APP-TMA-24","name":"Piarco TMA","group":"Piarco FIR (TTZP)","type":"TMA","class":"E / G","floor_ft":0,"ceil_ft":15500,"floor_label":"SFC","ceil_label":"15,500 ft","bands":"[[\"E\",\"5,500 ft\",\"15,500 ft\"],[\"G\",\"SFC\",\"5,500 ft\"]]","station":"TTPP_APP","station_name":"Piarco Approach","frequency":"119.000","color":"#12b886","schematic":false,"note":null}},{"type":"Feature","geometry":{"type":"Polygon","coordinates":[[[-60.615,12.708333333333332],[-60.99472222222222,13.315277777777778],[-61.5,13.566666666666666],[-61.72277777777778,13.265277777777778],[-61.96388888888889,12.783888888888889],[-61.21361111111111,12.42861111111111],[-60.615,12.708333333333332]]]},"properties":{"id":"TVSA_APP-TMA-25","name":"Argyle TMA","group":"Piarco FIR (TTZP)","type":"TMA","class":"D","floor_ft":5500,"ceil_ft":13500,"floor_label":"5,500 ft","ceil_label":"13,500 ft","bands":"[[\"D\",\"5,500 ft\",\"13,500 ft\"]]","station":"TVSA_APP","station_name":"Argyle Approach","frequency":"120.800","color":"#12b886","schematic":false,"note":null}},{"type":"Feature","geometry":{"type":"Polygon","coordinates":[[[-62.230000000000004,17.652777777777775],[-62.014722222222225,17.389444444444443],[-62.046751388888886,17.361226666666667],[-62.08227333333333,17.32143361111111],[-62.11085138888889,17.276823888888888],[-62.13178222222222,17.228498888888886],[-62.144550555555554,17.17765138888889],[-62.14884194444444,17.125535],[-62.144550555555554,17.073433055555554],[-62.13178222222222,17.022627777777778],[-62.11085138888889,16.974369166666666],[-62.08227333333333,16.9298425],[-62.046751388888886,16.89014138888889],[-62.005160277777776,16.85624027777778],[-61.95852416666667,16.828970277777778],[-61.90799111111111,16.80899972222222],[-61.85480583333334,16.796818611111114],[-61.80027777777777,16.792724722222225],[-61.74574972222222,16.796818611111114],[-61.69256444444444,16.80899972222222],[-61.64203138888889,16.828970277777778],[-61.59539527777778,16.85624027777778],[-61.553804166666666,16.89014138888889],[-61.51828222222222,16.9298425],[-61.48970416666667,16.974369166666666],[-61.46877305555556,17.022627777777778],[-61.456005000000005,17.073433055555554],[-61.45171361111112,17.125535],[-61.456005000000005,17.17765138888889],[-61.46877305555556,17.228498888888886],[-61.48970416666667,17.276823888888888],[-61.51828222222222,17.32143361111111],[-61.553804166666666,17.361226666666667],[-61.59027777777778,17.393055555555556],[-61.38,17.66],[-61.390502222222224,17.664396944444444],[-61.48377527777778,17.719187777777776],[-61.58484333333334,17.759328055555557],[-61.69121749999999,17.78381888888889],[-61.80027777777777,17.792050833333334],[-61.90933805555555,17.78381888888889],[-62.01571222222222,17.759328055555557],[-62.11678027777778,17.719187777777776],[-62.210053333333335,17.664396944444444],[-62.230000000000004,17.652777777777775]]]},"properties":{"id":"TAPA_TWR-CTR-26","name":"V.C. Bird CTR","group":"Piarco FIR (TTZP)","type":"CTR","class":"E","floor_ft":0,"ceil_ft":3000,"floor_label":"SFC","ceil_label":"3,000 ft","bands":"[[\"E\",\"SFC\",\"3,000 ft\"]]","station":"TAPA_TWR","station_name":"VC Bird Tower","frequency":"118.200","color":"#f76707","schematic":false,"note":null}},{"type":"Feature","geometry":{"type":"Polygon","coordinates":[[[-59.492222222222225,13.157999444444444],[-59.47884805555556,13.156973888888889],[-59.465803333333334,13.153922222222223],[-59.453408888888895,13.148919722222221],[-59.44197027777778,13.14209],[-59.43176916666666,13.13360111111111],[-59.42305638888889,13.123662222222222],[-59.416046944444446,13.112518055555554],[-59.410913055555554,13.10044361111111],[-59.407781388888885,13.087736111111111],[-59.40672861111111,13.074708055555556],[-59.407781388888885,13.061681111111112],[-59.410913055555554,13.048975555555556],[-59.416046944444446,13.036903888888888],[-59.42305638888889,13.02576388888889],[-59.43176916666666,13.015829444444444],[-59.44197027777778,13.007344722222221],[-59.453408888888895,13.00051888888889],[-59.465803333333334,12.995519444444444],[-59.47884805555556,12.992469999999999],[-59.492222222222225,12.991444999999999],[-59.50559638888889,12.992469999999999],[-59.51864111111111,12.995519444444444],[-59.531035555555555,13.00051888888889],[-59.542473888888885,13.007344722222221],[-59.55267527777777,13.015829444444444],[-59.561388055555554,13.02576388888889],[-59.5683975,13.036903888888888],[-59.573531388888895,13.048975555555556],[-59.57666305555556,13.061681111111112],[-59.577715833333336,13.074708055555556],[-59.57666305555556,13.087736111111111],[-59.573531388888895,13.10044361111111],[-59.5683975,13.112518055555554],[-59.561388055555554,13.123662222222222],[-59.55267527777777,13.13360111111111],[-59.542473888888885,13.14209],[-59.531035555555555,13.148919722222221],[-59.51864111111111,13.153922222222223],[-59.50559638888889,13.156973888888889],[-59.492222222222225,13.157999444444444]]]},"properties":{"id":"TBPB_TWR-ATZ-27","name":"Adams ATZ","group":"Piarco FIR (TTZP)","type":"ATZ","class":"D","floor_ft":0,"ceil_ft":2000,"floor_label":"SFC","ceil_label":"2,000 ft","bands":"[[\"D\",\"SFC\",\"2,000 ft\"]]","station":"TBPB_TWR","station_name":"Adams Tower","frequency":"118.700","color":"#f76707","schematic":false,"note":null}},{"type":"Feature","geometry":{"type":"Polygon","coordinates":[[[-59.48388888888889,13.491385833333332],[-59.41701694444444,13.486250833333333],[-59.35179166666667,13.470972777777778],[-59.28981944444444,13.445929444444445],[-59.23262638888889,13.411740555555555],[-59.181620277777775,13.369252222222222],[-59.1380575,13.319513888888888],[-59.10301027777778,13.263754722222222],[-59.07734166666667,13.203351388888889],[-59.061683055555555,13.139793611111111],[-59.056420555555555,13.074648611111112],[-59.061683055555555,13.009520833333333],[-59.07734166666667,12.946013055555555],[-59.10301027777778,12.885687222222222],[-59.1380575,12.830026111111112],[-59.181620277777775,12.78039638888889],[-59.23262638888889,12.738016388888887],[-59.28981944444444,12.703925833333333],[-59.35179166666667,12.678960277777778],[-59.41701694444444,12.663731944444445],[-59.48388888888889,12.658614166666666],[-59.55076083333333,12.663731944444445],[-59.61598611111111,12.678960277777778],[-59.67795833333333,12.703925833333333],[-59.73515138888889,12.738016388888887],[-59.7861575,12.78039638888889],[-59.82972027777778,12.830026111111112],[-59.86476722222223,12.885687222222222],[-59.89043611111111,12.946013055555555],[-59.90609444444444,13.009520833333333],[-59.91135722222222,13.074648611111112],[-59.90609444444444,13.139793611111111],[-59.89043611111111,13.203351388888889],[-59.86476722222223,13.263754722222222],[-59.82972027777778,13.319513888888888],[-59.7861575,13.369252222222222],[-59.73515138888889,13.411740555555555],[-59.67795833333333,13.445929444444445],[-59.61598611111111,13.470972777777778],[-59.55076083333333,13.486250833333333],[-59.48388888888889,13.491385833333332]]]},"properties":{"id":"TBPB_TWR-CTR-28","name":"Adams CTR","group":"Piarco FIR (TTZP)","type":"CTR","class":"D","floor_ft":0,"ceil_ft":3000,"floor_label":"SFC","ceil_label":"3,000 ft","bands":"[[\"D\",\"SFC\",\"3,000 ft\"]]","station":"TBPB_TWR","station_name":"Adams Tower","frequency":"118.700","color":"#f76707","schematic":false,"note":null}},{"type":"Feature","geometry":{"type":"Polygon","coordinates":[[[-61.39202777777778,15.370060833333334],[-61.38662444444444,15.369650555555555],[-61.38135388888889,15.368430277777778],[-61.37634638888889,15.366429722222222],[-61.37172527777778,15.363698055555556],[-61.367603611111115,15.360303055555555],[-61.36408361111111,15.356327777777777],[-61.36125138888889,15.351870555555555],[-61.35917722222222,15.347041111111112],[-61.357912222222225,15.341958333333334],[-61.357486944444446,15.336747222222224],[-61.357912222222225,15.331536388888889],[-61.35917722222222,15.326453888888889],[-61.36125138888889,15.321625],[-61.36408361111111,15.31716861111111],[-61.367603611111115,15.313194444444445],[-61.37172527777778,15.309800000000001],[-61.37634638888889,15.307069166666667],[-61.38135388888889,15.305069166666668],[-61.38662444444444,15.303849166666668],[-61.39202777777778,15.303439166666667],[-61.39743111111111,15.303849166666668],[-61.402701388888886,15.305069166666668],[-61.40770888888889,15.307069166666667],[-61.412330555555556,15.309800000000001],[-61.41645194444445,15.313194444444445],[-61.41997194444444,15.31716861111111],[-61.422803888888886,15.321625],[-61.42487805555555,15.326453888888889],[-61.42614361111111,15.331536388888889],[-61.42656861111111,15.336747222222224],[-61.42614361111111,15.341958333333334],[-61.42487805555555,15.347041111111112],[-61.422803888888886,15.351870555555555],[-61.41997194444444,15.356327777777777],[-61.41645194444445,15.360303055555555],[-61.412330555555556,15.363698055555556],[-61.40770888888889,15.366429722222222],[-61.402701388888886,15.368430277777778],[-61.39743111111111,15.369650555555555],[-61.39202777777778,15.370060833333334]]]},"properties":{"id":"TDCF_TWR-ATZ-29","name":"Canefield ATZ","group":"Piarco FIR (TTZP)","type":"ATZ","class":"G","floor_ft":0,"ceil_ft":2000,"floor_label":"SFC","ceil_label":"2,000 ft","bands":"[[\"G\",\"SFC\",\"2,000 ft\"]]","station":"TDCF_TWR","station_name":"Canefield Tower","frequency":"118.700","color":"#f76707","schematic":false,"note":null}},{"type":"Feature","geometry":{"type":"Polygon","coordinates":[[[-61.30138888888889,15.5799775],[-61.29598,15.579567222222222],[-61.290704444444444,15.578346944444444],[-61.285691666666665,15.576346388888888],[-61.28106555555556,15.573614722222223],[-61.276939999999996,15.570219722222221],[-61.27341638888889,15.566244444444445],[-61.270581388888885,15.561787222222224],[-61.26850527777778,15.556957777777779],[-61.26723861111111,15.551875],[-61.26681305555555,15.546663888888888],[-61.26723861111111,15.541453055555555],[-61.26850527777778,15.536370555555555],[-61.270581388888885,15.531541666666667],[-61.27341638888889,15.527085277777779],[-61.276939999999996,15.523111111111112],[-61.28106555555556,15.519716666666667],[-61.285691666666665,15.516985833333335],[-61.290704444444444,15.514985833333334],[-61.29598,15.513765833333334],[-61.30138888888889,15.513355833333334],[-61.306797777777774,15.513765833333334],[-61.31207361111111,15.514985833333334],[-61.31708611111112,15.516985833333335],[-61.321712222222224,15.519716666666667],[-61.32583777777778,15.523111111111112],[-61.32936138888889,15.527085277777779],[-61.33219638888889,15.531541666666667],[-61.334272500000004,15.536370555555555],[-61.33553916666667,15.541453055555555],[-61.33596472222222,15.546663888888888],[-61.33553916666667,15.551875],[-61.334272500000004,15.556957777777779],[-61.33219638888889,15.561787222222224],[-61.32936138888889,15.566244444444445],[-61.32583777777778,15.570219722222221],[-61.321712222222224,15.573614722222223],[-61.31708611111112,15.576346388888888],[-61.31207361111111,15.578346944444444],[-61.306797777777774,15.579567222222222],[-61.30138888888889,15.5799775]]]},"properties":{"id":"TDPD_TWR-ATZ-30","name":"Douglas–Charles ATZ","group":"Piarco FIR (TTZP)","type":"ATZ","class":"G","floor_ft":0,"ceil_ft":2000,"floor_label":"SFC","ceil_label":"2,000 ft","bands":"[[\"G\",\"SFC\",\"2,000 ft\"]]","station":"TDPD_TWR","station_name":"Douglas Charles Tower","frequency":"118.900","color":"#f76707","schematic":false,"note":null}},{"type":"Feature","geometry":{"type":"Polygon","coordinates":[[[-61.022777777777776,14.757387777777778],[-60.99585444444445,14.755335555555556],[-60.969594444444446,14.749229722222221],[-60.94464361111111,14.739221388888888],[-60.921616944444445,14.725556944444445],[-60.90108111111111,14.70857361111111],[-60.883541944444445,14.688690277777779],[-60.86943111111111,14.666397222222223],[-60.859096388888894,14.642244444444444],[-60.85279194444445,14.616826666666666],[-60.85067305555555,14.590770277777779],[-60.85279194444445,14.564716944444445],[-60.859096388888894,14.539308333333333],[-60.86943111111111,14.515169444444444],[-60.883541944444445,14.492893888888888],[-60.90108111111111,14.473030277777777],[-60.921616944444445,14.456066388888889],[-60.94464361111111,14.442419444444445],[-60.969594444444446,14.43242472222222],[-60.99585444444445,14.426328055555555],[-61.022777777777776,14.424278888888889],[-61.04970111111111,14.426328055555555],[-61.07596111111111,14.43242472222222],[-61.10091194444445,14.442419444444445],[-61.123938611111114,14.456066388888889],[-61.14447444444444,14.473030277777777],[-61.16201361111111,14.492893888888888],[-61.17612444444444,14.515169444444444],[-61.18645944444444,14.539308333333333],[-61.19276361111111,14.564716944444445],[-61.19488277777778,14.590770277777779],[-61.19276361111111,14.616826666666666],[-61.18645944444444,14.642244444444444],[-61.17612444444444,14.666397222222223],[-61.16201361111111,14.688690277777779],[-61.14447444444444,14.70857361111111],[-61.123938611111114,14.725556944444445],[-61.10091194444445,14.739221388888888],[-61.07596111111111,14.749229722222221],[-61.04970111111111,14.755335555555556],[-61.022777777777776,14.757387777777778]]]},"properties":{"id":"TFFF_TWR-CTR-31","name":"Martinique CTR","group":"Piarco FIR (TTZP)","type":"CTR","class":"D","floor_ft":0,"ceil_ft":1500,"floor_label":"SFC","ceil_label":"1,500 ft","bands":"[[\"D\",\"SFC\",\"1,500 ft\"]]","station":"TFFF_TWR","station_name":"Martinique Tower","frequency":"118.500","color":"#f76707","schematic":false,"note":null}},{"type":"Feature","geometry":{"type":"Polygon","coordinates":[[[-61.568333333333335,16.5975],[-61.30333333333333,16.309722222222224],[-61.30037027777777,16.301619444444444],[-61.29737972222222,16.265139444444443],[-61.30037027777777,16.22866611111111],[-61.30926777777778,16.19309722222222],[-61.32385361111111,16.15930861111111],[-61.343768611111116,16.12813],[-61.368522222222225,16.100328611111113],[-61.397505277777775,16.076586666666667],[-61.43000388888888,16.057488055555556],[-61.46521777777778,16.043501111111112],[-61.50228,16.03496916666667],[-61.50805555555556,16.033611111111114],[-61.88472222222222,16.294444444444448],[-61.883003055555555,16.31711138888889],[-61.870292222222226,16.36795777777778],[-61.84945555555556,16.41628083333333],[-61.82100555555556,16.460888333333333],[-61.78564361111111,16.500679166666668],[-61.744239444444446,16.534670277777778],[-61.69781277777778,16.56202111111111],[-61.647506944444444,16.58205583333333],[-61.59456083333333,16.59427833333333],[-61.568333333333335,16.5975]]]},"properties":{"id":"TFFR_TWR-CTR-32","name":"Raizet CTR","group":"Piarco FIR (TTZP)","type":"CTR","class":"D","floor_ft":0,"ceil_ft":2500,"floor_label":"SFC","ceil_label":"2,500 ft","bands":"[[\"D\",\"SFC\",\"2,500 ft\"]]","station":"TFFR_TWR","station_name":"Raizet Tower","frequency":"118.400","color":"#f76707","schematic":false,"note":null}},{"type":"Feature","geometry":{"type":"Polygon","coordinates":[[[-61.49666666666667,11.587777777777779],[-61.55336111111111,11.556369444444446],[-61.62741888888889,11.526415277777778],[-61.70536444444445,11.508144166666666],[-61.78527777777778,11.50200361111111],[-61.86519111111111,11.508144166666666],[-61.94313638888889,11.526415277777778],[-62.01719444444444,11.556369444444446],[-62.08554111111111,11.597272777777778],[-62.14649361111111,11.6481225],[-62.19855111111111,11.707671666666666],[-62.240432500000004,11.774459444444446],[-62.27110638888889,11.846845277777778],[-62.28981833333333,11.923051388888888],[-62.29610722222222,12.00120361111111],[-62.28981833333333,12.079378333333333],[-62.27110638888889,12.155650277777777],[-62.243611111111115,12.222777777777777],[-62.240432500000004,12.228138611111111],[-62.19855111111111,12.295055277777777],[-62.14649361111111,12.354747777777778],[-62.08554111111111,12.405740555555555],[-62.01719444444444,12.446773055555555],[-61.94313638888889,12.476829722222222],[-61.86519111111111,12.495166388888888],[-61.78527777777778,12.501329722222222],[-61.70536444444445,12.495166388888888],[-61.62741888888889,12.476829722222222],[-61.55336111111111,12.446773055555555],[-61.485014722222225,12.405740555555555],[-61.42406222222222,12.354747777777778],[-61.37200444444444,12.295055277777777],[-61.33012305555556,12.228138611111111],[-61.29944888888889,12.155650277777777],[-61.28073722222222,12.079378333333333],[-61.27444861111111,12.00120361111111],[-61.28073722222222,11.923051388888888],[-61.29944888888889,11.846845277777778],[-61.33012305555556,11.774459444444446],[-61.37200444444444,11.707671666666666],[-61.42406222222222,11.6481225],[-61.485014722222225,11.597272777777778],[-61.49666666666667,11.587777777777779]]]},"properties":{"id":"TGPY_TWR-CTR-33","name":"Maurice Bishop CTR","group":"Piarco FIR (TTZP)","type":"CTR","class":"E","floor_ft":0,"ceil_ft":5500,"floor_label":"SFC","ceil_label":"5,500 ft","bands":"[[\"E\",\"SFC\",\"5,500 ft\"]]","station":"TGPY_TWR","station_name":"Maurice Bishop Tower","frequency":"118.900","color":"#f76707","schematic":false,"note":null}},{"type":"Feature","geometry":{"type":"Polygon","coordinates":[[[-62.71944444444445,17.352194166666667],[-62.71262166666667,17.351681388888892],[-62.70596694444445,17.350155833333336],[-62.699643888888886,17.34765472222222],[-62.69380861111111,17.344240277777775],[-62.688604722222216,17.33999611111111],[-62.68416,17.335026944444444],[-62.68058388888889,17.32945527777778],[-62.677965,17.323418333333333],[-62.67636722222222,17.317064722222224],[-62.67583027777778,17.310550833333334],[-62.67636722222222,17.304037222222224],[-62.677965,17.297684444444446],[-62.68058388888889,17.291648333333335],[-62.68416,17.286078055555556],[-62.688604722222216,17.281110277777778],[-62.69380861111111,17.276867777777777],[-62.699643888888886,17.273454444444443],[-62.70596694444445,17.270954444444442],[-62.71262166666667,17.269429444444444],[-62.71944444444445,17.268916944444445],[-62.726267222222226,17.269429444444444],[-62.73292194444445,17.270954444444442],[-62.739244722222224,17.273454444444443],[-62.74508027777778,17.276867777777777],[-62.75028416666667,17.281110277777778],[-62.75472888888889,17.286078055555556],[-62.75830472222222,17.291648333333335],[-62.76092388888889,17.297684444444446],[-62.76252138888889,17.304037222222224],[-62.76305861111111,17.310550833333334],[-62.76252138888889,17.317064722222224],[-62.76092388888889,17.323418333333333],[-62.75830472222222,17.32945527777778],[-62.75472888888889,17.335026944444444],[-62.75028416666667,17.33999611111111],[-62.74508027777778,17.344240277777775],[-62.739244722222224,17.34765472222222],[-62.73292194444445,17.350155833333336],[-62.726267222222226,17.351681388888892],[-62.71944444444445,17.352194166666667]]]},"properties":{"id":"TKPK_TWR-ATZ-34","name":"Bradshaw ATZ","group":"Piarco FIR (TTZP)","type":"ATZ","class":"D","floor_ft":0,"ceil_ft":2000,"floor_label":"SFC","ceil_label":"2,000 ft","bands":"[[\"D\",\"SFC\",\"2,000 ft\"]]","station":"TKPK_TWR","station_name":"Bradshaw Tower","frequency":"118.300","color":"#f76707","schematic":false,"note":null}},{"type":"Feature","geometry":{"type":"Polygon","coordinates":[[[-62.9,17.433333333333334],[-62.74166666666667,17.52777777777778],[-62.5,17.283333333333335],[-62.5,16.833333333333332],[-63,17.183333333333334],[-63,17.366666666666667],[-62.9,17.433333333333334]]]},"properties":{"id":"TKPK_APP-TMA-35","name":"Bradshaw TMA (St Kitts/Nevis)","group":"Piarco FIR (TTZP)","type":"TMA","class":"D","floor_ft":0,"ceil_ft":6500,"floor_label":"SFC","ceil_label":"6,500 ft","bands":"[[\"D\",\"SFC\",\"6,500 ft\"]]","station":"TKPK_APP","station_name":"Bradshaw Approach","frequency":"119.600","color":"#12b886","schematic":false,"note":null}},{"type":"Feature","geometry":{"type":"Polygon","coordinates":[[[-62.59,17.23053861111111],[-62.585908611111115,17.23023111111111],[-62.58191805555556,17.22931583333333],[-62.57812638888889,17.227815277777776],[-62.574627222222226,17.225766944444445],[-62.57150666666667,17.223220555555553],[-62.56884138888889,17.220239166666666],[-62.566696944444445,17.216896388888888],[-62.565126388888885,17.213274166666665],[-62.56416861111111,17.20946222222222],[-62.563846388888884,17.20555388888889],[-62.56416861111111,17.201645555555555],[-62.565126388888885,17.19783388888889],[-62.566696944444445,17.194212222222223],[-62.56884138888889,17.19086972222222],[-62.57150666666667,17.18788888888889],[-62.574627222222226,17.185343055555556],[-62.57812638888889,17.183295],[-62.58191805555556,17.181795],[-62.585908611111115,17.180880000000002],[-62.59,17.180572222222224],[-62.59409138888889,17.180880000000002],[-62.598081944444445,17.181795],[-62.60187361111111,17.183295],[-62.60537277777778,17.185343055555556],[-62.608493333333335,17.18788888888889],[-62.611158611111115,17.19086972222222],[-62.613303055555555,17.194212222222223],[-62.614873611111115,17.19783388888889],[-62.61583138888889,17.201645555555555],[-62.61615361111111,17.20555388888889],[-62.61583138888889,17.20946222222222],[-62.614873611111115,17.213274166666665],[-62.613303055555555,17.216896388888888],[-62.611158611111115,17.220239166666666],[-62.608493333333335,17.223220555555553],[-62.60537277777778,17.225766944444445],[-62.60187361111111,17.227815277777776],[-62.598081944444445,17.22931583333333],[-62.59409138888889,17.23023111111111],[-62.59,17.23053861111111]]]},"properties":{"id":"TKPN_TWR-ATZ-36","name":"Amory ATZ","group":"Piarco FIR (TTZP)","type":"ATZ","class":"D","floor_ft":0,"ceil_ft":2000,"floor_label":"SFC","ceil_label":"2,000 ft","bands":"[[\"D\",\"SFC\",\"2,000 ft\"]]","station":"TKPN_TWR","station_name":"Amory Tower","frequency":"120.500","color":"#f76707","schematic":false,"note":null}},{"type":"Feature","geometry":{"type":"Polygon","coordinates":[[[-61,14.060527500000001],[-60.99328638888889,14.060014722222222],[-60.986738055555556,14.058489166666668],[-60.980516111111115,14.055988333333334],[-60.97477416666667,14.05257388888889],[-60.969653055555554,14.04833],[-60.96527944444445,14.04336111111111],[-60.96176083333334,14.037789444444444],[-60.959183611111115,14.031752500000001],[-60.95761138888889,14.02539888888889],[-60.95708305555556,14.018885277777779],[-60.95761138888889,14.012371388888889],[-60.959183611111115,14.006018611111111],[-60.96176083333334,13.999982222222222],[-60.96527944444445,13.994411944444444],[-60.969653055555554,13.989443888888887],[-60.97477416666667,13.985201388888887],[-60.980516111111115,13.981787777777777],[-60.986738055555556,13.979287777777778],[-60.99328638888889,13.977762777777778],[-61,13.977250277777777],[-61.00671361111111,13.977762777777778],[-61.013261944444444,13.979287777777778],[-61.019483888888885,13.981787777777777],[-61.02522583333333,13.985201388888887],[-61.030346944444446,13.989443888888887],[-61.03472055555555,13.994411944444444],[-61.03823916666666,13.999982222222222],[-61.040816388888885,14.006018611111111],[-61.04238861111111,14.012371388888889],[-61.04291694444444,14.018885277777779],[-61.04238861111111,14.02539888888889],[-61.040816388888885,14.031752500000001],[-61.03823916666666,14.037789444444444],[-61.03472055555555,14.04336111111111],[-61.030346944444446,14.04833],[-61.02522583333333,14.05257388888889],[-61.019483888888885,14.055988333333334],[-61.013261944444444,14.058489166666668],[-61.00671361111111,14.060014722222222],[-61,14.060527500000001]]]},"properties":{"id":"TLPC_TWR-ATZ-37","name":"George Charles ATZ","group":"Piarco FIR (TTZP)","type":"ATZ","class":"D","floor_ft":0,"ceil_ft":2000,"floor_label":"SFC","ceil_label":"2,000 ft","bands":"[[\"D\",\"SFC\",\"2,000 ft\"]]","station":"TLPC_TWR","station_name":"George Charles Tower","frequency":"118.000","color":"#f76707","schematic":false,"note":null}},{"type":"Feature","geometry":{"type":"Polygon","coordinates":[[[-60.95194444444445,13.773860833333334],[-60.94523888888889,13.773348055555557],[-60.93869888888889,13.7718225],[-60.93248472222222,13.769321666666668],[-60.92674972222222,13.765907222222221],[-60.921635277777774,13.761663333333333],[-60.91726694444444,13.756694444444445],[-60.9137525,13.751122777777777],[-60.91117861111111,13.745085833333333],[-60.90960833333333,13.738732222222222],[-60.909080555555555,13.732218611111112],[-60.90960833333333,13.725704722222222],[-60.91117861111111,13.719351944444444],[-60.9137525,13.713315833333333],[-60.91726694444444,13.707745277777777],[-60.921635277777774,13.7027775],[-60.92674972222222,13.698534722222222],[-60.93248472222222,13.695121111111112],[-60.93869888888889,13.69262111111111],[-60.94523888888889,13.691096111111111],[-60.95194444444445,13.690583611111112],[-60.958649722222226,13.691096111111111],[-60.96519027777778,13.69262111111111],[-60.971404166666666,13.695121111111112],[-60.97713916666667,13.698534722222222],[-60.98225361111111,13.7027775],[-60.986621944444444,13.707745277777777],[-60.99013638888889,13.713315833333333],[-60.99271027777778,13.719351944444444],[-60.994280555555555,13.725704722222222],[-60.99480833333333,13.732218611111112],[-60.994280555555555,13.738732222222222],[-60.99271027777778,13.745085833333333],[-60.99013638888889,13.751122777777777],[-60.986621944444444,13.756694444444445],[-60.98225361111111,13.761663333333333],[-60.97713916666667,13.765907222222221],[-60.971404166666666,13.769321666666668],[-60.96519027777778,13.7718225],[-60.958649722222226,13.773348055555557],[-60.95194444444445,13.773860833333334]]]},"properties":{"id":"TLPL_TWR-ATZ-38","name":"Hewanorra ATZ","group":"Piarco FIR (TTZP)","type":"ATZ","class":"D","floor_ft":0,"ceil_ft":2000,"floor_label":"SFC","ceil_label":"2,000 ft","bands":"[[\"D\",\"SFC\",\"2,000 ft\"]]","station":"TLPL_TWR","station_name":"Hewanorra Tower","frequency":"118.300","color":"#f76707","schematic":false,"note":null}},{"type":"Feature","geometry":{"type":"Polygon","coordinates":[[[-60.58388888888889,13.899166666666666],[-60.5692825,13.861668055555555],[-60.55358111111111,13.798108888888889],[-60.54830388888889,13.732963611111112],[-60.55358111111111,13.66783611111111],[-60.5692825,13.604329722222221],[-60.59502138888889,13.544006111111111],[-60.630164722222226,13.4883475],[-60.67384694444444,13.438720555555555],[-60.72499277777778,13.39634361111111],[-60.78234277777778,13.362255277777777],[-60.844485,13.337291944444445],[-60.909889166666666,13.322064722222223],[-60.99472222222222,13.315277777777778],[-61.5,13.566666666666666],[-61.668055555555554,14.034722222222221],[-61.334722222222226,14.111388888888888],[-60.86666666666667,14.216666666666667],[-60.82888888888889,14.176666666666666],[-60.67384694444444,14.027576111111111],[-60.630164722222226,13.977835277777778],[-60.59502138888889,13.922073611111111],[-60.58388888888889,13.899166666666666]]]},"properties":{"id":"TLPL_APP-TMA-39","name":"St Lucia TMA","group":"Piarco FIR (TTZP)","type":"TMA","class":"D","floor_ft":0,"ceil_ft":4500,"floor_label":"SFC","ceil_label":"4,500 ft","bands":"[[\"D\",\"SFC\",\"4,500 ft\"]]","station":"TLPL_APP","station_name":"Saint Lucia Approach","frequency":"119.800","color":"#12b886","schematic":false,"note":null}},{"type":"Feature","geometry":{"type":"Polygon","coordinates":[[[-62.19333333333333,16.82469972222222],[-62.187890277777775,16.824289444444446],[-62.182581388888885,16.823069166666667],[-62.17753694444444,16.821068611111112],[-62.17288166666666,16.818336944444443],[-62.16873,16.814941944444445],[-62.16518388888889,16.81096666666667],[-62.16233138888889,16.806509444444444],[-62.160241944444444,16.80167972222222],[-62.15896722222222,16.796596944444445],[-62.158538888888884,16.791386111111112],[-62.15896722222222,16.786175],[-62.160241944444444,16.781092777777776],[-62.16233138888889,16.776263888888888],[-62.16518388888889,16.771807222222222],[-62.16873,16.767833055555556],[-62.17288166666666,16.76443888888889],[-62.17753694444444,16.761708055555555],[-62.182581388888885,16.759708055555556],[-62.187890277777775,16.758488055555556],[-62.19333333333333,16.758078055555554],[-62.19877638888889,16.758488055555556],[-62.20408527777778,16.759708055555556],[-62.20912972222222,16.761708055555555],[-62.213785,16.76443888888889],[-62.21793666666667,16.767833055555556],[-62.22148277777778,16.771807222222222],[-62.22433527777778,16.776263888888888],[-62.22642472222223,16.781092777777776],[-62.22769944444445,16.786175],[-62.22812777777778,16.791386111111112],[-62.22769944444445,16.796596944444445],[-62.22642472222223,16.80167972222222],[-62.22433527777778,16.806509444444444],[-62.22148277777778,16.81096666666667],[-62.21793666666667,16.814941944444445],[-62.213785,16.818336944444443],[-62.20912972222222,16.821068611111112],[-62.20408527777778,16.823069166666667],[-62.19877638888889,16.824289444444446],[-62.19333333333333,16.82469972222222]]]},"properties":{"id":"TRPG_TWR-ATZ-40","name":"J.A. Osborne ATZ","group":"Piarco FIR (TTZP)","type":"ATZ","class":"G","floor_ft":0,"ceil_ft":2000,"floor_label":"SFC","ceil_label":"2,000 ft","bands":"[[\"G\",\"SFC\",\"2,000 ft\"]]","station":"TRPG_TWR","station_name":"John A. Osborne Tower","frequency":"118.800","color":"#f76707","schematic":false,"note":null}},{"type":"Feature","geometry":{"type":"Polygon","coordinates":[[[-60.83222222222223,11.232999444444445],[-60.84550027777778,11.23197388888889],[-60.85845138888889,11.228922222222222],[-60.870756666666665,11.223920277777777],[-60.88211305555556,11.217090555555556],[-60.89224111111111,11.208602222222222],[-60.90089111111111,11.198663611111112],[-60.907850277777776,11.187519722222222],[-60.91294722222222,11.175445555555555],[-60.91605638888889,11.162738055555556],[-60.91710138888889,11.149710277777777],[-60.91605638888889,11.136683055555554],[-60.91294722222222,11.123977222222223],[-60.907850277777776,11.111905555555555],[-60.90089111111111,11.100765277777777],[-60.89224111111111,11.090830277777778],[-60.88211305555556,11.082345555555555],[-60.870756666666665,11.075519444444444],[-60.85845138888889,11.070519722222222],[-60.84550027777778,11.06747],[-60.83222222222223,11.066445],[-60.81894416666667,11.06747],[-60.805993055555554,11.070519722222222],[-60.79368777777778,11.075519444444444],[-60.782331388888885,11.082345555555555],[-60.77220361111111,11.090830277777778],[-60.763553611111114,11.100765277777777],[-60.756594166666666,11.111905555555555],[-60.75149722222222,11.123977222222223],[-60.74838805555556,11.136683055555554],[-60.747343055555554,11.149710277777777],[-60.74838805555556,11.162738055555556],[-60.75149722222222,11.175445555555555],[-60.756594166666666,11.187519722222222],[-60.763553611111114,11.198663611111112],[-60.77220361111111,11.208602222222222],[-60.782331388888885,11.217090555555556],[-60.79368777777778,11.223920277777777],[-60.805993055555554,11.228922222222222],[-60.81894416666667,11.23197388888889],[-60.83222222222223,11.232999444444445]]]},"properties":{"id":"TTCP_TWR-ATZ-41","name":"Robinson ATZ","group":"Piarco FIR (TTZP)","type":"ATZ","class":"D","floor_ft":0,"ceil_ft":2000,"floor_label":"SFC","ceil_label":"2,000 ft","bands":"[[\"D\",\"SFC\",\"2,000 ft\"]]","station":"TTCP_TWR","station_name":"Robinson Tower","frequency":"118.400","color":"#f76707","schematic":false,"note":null}},{"type":"Feature","geometry":{"type":"Polygon","coordinates":[[[-61.33722222222222,10.678555],[-61.32396888888889,10.677529444444444],[-61.31104194444444,10.674478055555555],[-61.29875944444444,10.669476111111111],[-61.28742388888889,10.66264638888889],[-61.277315,10.654158055555556],[-61.26868111111111,10.644219444444444],[-61.26173472222222,10.633075833333335],[-61.25664722222222,10.621001666666666],[-61.25354361111111,10.608294166666667],[-61.25250055555556,10.59526638888889],[-61.25354361111111,10.582239444444443],[-61.25664722222222,10.56953361111111],[-61.26173472222222,10.557461944444444],[-61.26868111111111,10.546321388888888],[-61.277315,10.53638638888889],[-61.28742388888889,10.527901111111111],[-61.29875944444444,10.521075000000002],[-61.31104194444444,10.516075277777778],[-61.32396888888889,10.513025555555556],[-61.33722222222222,10.512000555555556],[-61.350475555555555,10.513025555555556],[-61.36340277777778,10.516075277777778],[-61.375685,10.521075000000002],[-61.38702027777778,10.527901111111111],[-61.397129444444445,10.53638638888889],[-61.40576361111111,10.546321388888888],[-61.41270972222222,10.557461944444444],[-61.41779722222222,10.56953361111111],[-61.420900833333334,10.582239444444443],[-61.42194388888888,10.59526638888889],[-61.420900833333334,10.608294166666667],[-61.41779722222222,10.621001666666666],[-61.41270972222222,10.633075833333335],[-61.40576361111111,10.644219444444444],[-61.397129444444445,10.654158055555556],[-61.38702027777778,10.66264638888889],[-61.375685,10.669476111111111],[-61.36340277777778,10.674478055555555],[-61.350475555555555,10.677529444444444],[-61.33722222222222,10.678555]]]},"properties":{"id":"TTPP_TWR-ATZ-42","name":"Piarco ATZ","group":"Piarco FIR (TTZP)","type":"ATZ","class":"D","floor_ft":0,"ceil_ft":2000,"floor_label":"SFC","ceil_label":"2,000 ft","bands":"[[\"D\",\"SFC\",\"2,000 ft\"]]","station":"TTPP_TWR","station_name":"Piarco Tower","frequency":"118.100","color":"#f76707","schematic":false,"note":null}},{"type":"Feature","geometry":{"type":"MultiPolygon","coordinates":[[[[-61.78333333333333,10.733333333333333],[-61.844722222222224,10.58388888888889],[-61.83929416666667,10.516716666666667],[-61.82067388888889,10.440506666666668],[-61.79015027777778,10.368114444444444],[-61.74847361111111,10.301319166666667],[-61.69667055555555,10.241761388888888],[-61.63601638888889,10.190903055555555],[-61.56800388888889,10.149991944444444],[-61.49430861111111,10.120031666666668],[-61.41674472222222,10.101756388888889],[-61.33722222222222,10.095614722222223],[-61.25769972222222,10.101756388888889],[-61.18013583333333,10.120031666666668],[-61.10644027777778,10.149991944444444],[-61.038428055555556,10.190903055555555],[-60.97777388888889,10.241761388888888],[-60.96027777777778,10.259166666666667],[-60.45444444444445,10.81388888888889],[-60.420205555555555,10.855749444444443],[-60.37845166666667,10.922541388888888],[-60.34787111111111,10.994931388888888],[-60.329216111111116,11.071139722222222],[-60.322946388888894,11.149292777777777],[-60.329216111111116,11.227466944444444],[-60.34787111111111,11.303736111111112],[-60.37845166666667,11.376221111111112],[-60.420205555555555,11.443133055555556],[-60.47210527777778,11.502820277777777],[-60.532872222222224,11.553807777777779],[-60.60101111111111,11.594835555555557],[-60.67484361111111,11.624888333333335],[-60.75255194444444,11.643223055555556],[-60.83222222222223,11.649385277777776],[-60.9118925,11.643223055555556],[-60.989600833333334,11.624888333333335],[-61.06343361111111,11.594835555555557],[-61.131572222222225,11.553807777777779],[-61.19233944444444,11.502820277777777],[-61.21055555555556,11.48611111111111],[-61.71472222222223,10.931388888888888],[-61.74847361111111,10.888703055555554],[-61.79015027777778,10.82179388888889],[-61.82067388888889,10.749311388888888],[-61.821111111111115,10.747499999999999],[-61.78333333333333,10.733333333333333]]],[[[-61.33722222222222,10.928386388888889],[-61.28420805555555,10.924280833333333],[-61.23249944444444,10.912065555555555],[-61.18336944444444,10.892042222222221],[-61.13802805555555,10.864705277777777],[-61.097591944444446,10.830729722222221],[-61.06305611111111,10.790954722222223],[-61.03527138888889,10.746361388888888],[-61.01492138888889,10.698049722222223],[-61.00250777777778,10.647210555555555],[-60.998335555555556,10.595096666666667],[-61.00250777777778,10.542991666666667],[-61.01492138888889,10.492178333333333],[-61.03527138888889,10.44390638888889],[-61.06305611111111,10.399363611111111],[-61.097591944444446,10.359644444444443],[-61.13802805555555,10.325725277777778],[-61.18336944444444,10.298438888888889],[-61.23249944444444,10.278455555555556],[-61.28420805555555,10.266265833333334],[-61.33722222222222,10.262168888888889],[-61.39023638888889,10.266265833333334],[-61.441945,10.278455555555556],[-61.491075,10.298438888888889],[-61.53641638888889,10.325725277777778],[-61.57685277777778,10.359644444444443],[-61.61138833333334,10.399363611111111],[-61.63917305555555,10.44390638888889],[-61.65952305555555,10.492178333333333],[-61.67193666666667,10.542991666666667],[-61.67610888888888,10.595096666666667],[-61.67193666666667,10.647210555555555],[-61.65952305555555,10.698049722222223],[-61.63917305555555,10.746361388888888],[-61.61138833333334,10.790954722222223],[-61.57685277777778,10.830729722222221],[-61.53641638888889,10.864705277777777],[-61.491075,10.892042222222221],[-61.441945,10.912065555555555],[-61.39023638888889,10.924280833333333],[-61.33722222222222,10.928386388888889]]],[[[-60.83222222222223,11.48283111111111],[-60.779109444444444,11.478725277777778],[-60.72730444444445,11.466508888888889],[-60.678083055555554,11.446484444444444],[-60.6326575,11.419146388888889],[-60.59214611111111,11.385169444444443],[-60.55754611111111,11.345392777777779],[-60.52970944444444,11.300798055555557],[-60.509321944444444,11.252485277777778],[-60.496885,11.201645277777777],[-60.49270527777778,11.149531388888889],[-60.496885,11.097426666666667],[-60.509321944444444,11.046613888888889],[-60.52970944444444,10.998343333333333],[-60.55754611111111,10.953801666666665],[-60.59214611111111,10.914084166666667],[-60.6326575,10.88016638888889],[-60.678083055555554,10.852881111111111],[-60.72730444444445,10.832898888888888],[-60.779109444444444,10.82071],[-60.83222222222223,10.816613611111112],[-60.885335,10.82071],[-60.93713972222222,10.832898888888888],[-60.986361111111115,10.852881111111111],[-61.03178694444444,10.88016638888889],[-61.072298611111115,10.914084166666667],[-61.10689861111111,10.953801666666665],[-61.13473472222222,10.998343333333333],[-61.1551225,11.046613888888889],[-61.16755944444444,11.097426666666667],[-61.17173944444444,11.149531388888889],[-61.16755944444444,11.201645277777777],[-61.1551225,11.252485277777778],[-61.13473472222222,11.300798055555557],[-61.10689861111111,11.345392777777779],[-61.072298611111115,11.385169444444443],[-61.03178694444444,11.419146388888889],[-60.986361111111115,11.446484444444444],[-60.93713972222222,11.466508888888889],[-60.885335,11.478725277777778],[-60.83222222222223,11.48283111111111]]],[[[-61.33722222222222,10.795143055555556],[-61.369030555555554,10.792680555555556],[-61.400055555555554,10.785354722222221],[-61.42953333333333,10.773345555555556],[-61.45673805555556,10.756949444444444],[-61.481,10.736571111111111],[-61.50172138888889,10.712712777777776],[-61.5183925,10.685962777777778],[-61.5306025,10.656980555555556],[-61.53805083333333,10.626479722222223],[-61.540554166666666,10.5952125],[-61.53805083333333,10.563948611111112],[-61.5306025,10.533457222222221],[-61.5183925,10.504489444444445],[-61.50172138888889,10.477757500000001],[-61.500277777777775,10.475833333333334],[-61.19777777777777,10.449444444444445],[-61.19344444444444,10.453919444444443],[-61.17272305555555,10.477757500000001],[-61.15605194444444,10.504489444444445],[-61.143841944444446,10.533457222222221],[-61.13639361111111,10.563948611111112],[-61.13389027777778,10.5952125],[-61.13639361111111,10.626479722222223],[-61.143841944444446,10.656980555555556],[-61.15605194444444,10.685962777777778],[-61.17272305555555,10.712712777777776],[-61.19344444444444,10.736571111111111],[-61.21770638888889,10.756949444444444],[-61.244911111111115,10.773345555555556],[-61.274388888888886,10.785354722222221],[-61.305413888888886,10.792680555555556],[-61.33722222222222,10.795143055555556]]],[[[-60.83222222222223,11.3495875],[-60.80035472222222,11.347125277777778],[-60.76927194444444,11.33979888888889],[-60.739739444444446,11.327789166666667],[-60.71248388888889,11.311392777777778],[-60.68817694444444,11.29101388888889],[-60.66741694444444,11.267154722222223],[-60.65071472222222,11.240404444444444],[-60.63848222222222,11.211421666666666],[-60.63102,11.180921111111111],[-60.62851194444445,11.14965361111111],[-60.63102,11.118389444444444],[-60.63848222222222,11.087898611111111],[-60.65071472222222,11.058931111111113],[-60.66741694444444,11.032199722222224],[-60.68817694444444,11.008361944444445],[-60.71248388888889,10.988004166666666],[-60.739739444444446,10.971626944444445],[-60.76927194444444,10.9596325],[-60.80035472222222,10.952316111111111],[-60.83222222222223,10.949856944444445],[-60.864089722222225,10.952316111111111],[-60.89517222222222,10.9596325],[-60.924704999999996,10.971626944444445],[-60.95196055555556,10.988004166666666],[-60.976267222222226,11.008361944444445],[-60.9970275,11.032199722222224],[-61.013729444444444,11.058931111111113],[-61.02596222222222,11.087898611111111],[-61.03342444444444,11.118389444444444],[-61.0359325,11.14965361111111],[-61.03342444444444,11.180921111111111],[-61.02596222222222,11.211421666666666],[-61.013729444444444,11.240404444444444],[-60.9970275,11.267154722222223],[-60.976267222222226,11.29101388888889],[-60.95196055555556,11.311392777777778],[-60.924704999999996,11.327789166666667],[-60.89517222222222,11.33979888888889],[-60.864089722222225,11.347125277777778],[-60.83222222222223,11.3495875]]]]},"properties":{"id":"TTPP_TWR-CTR-43","name":"Piarco CTR","group":"Piarco FIR (TTZP)","type":"CTR","class":"D","floor_ft":0,"ceil_ft":5500,"floor_label":"SFC","ceil_label":"5,500 ft","bands":"[[\"D\",\"SFC\",\"5,500 ft\"]]","station":"TTPP_TWR","station_name":"Piarco Tower","frequency":"118.100","color":"#f76707","schematic":false,"note":null}},{"type":"Feature","geometry":{"type":"Polygon","coordinates":[[[-61.14861111111111,13.193310833333333],[-61.14325972222222,13.192900555555555],[-61.138039722222224,13.191680277777778],[-61.13308055555556,13.189679722222223],[-61.128503333333335,13.186948333333333],[-61.12442138888889,13.183553055555556],[-61.120935277777775,13.179578055555554],[-61.11813055555555,13.17512111111111],[-61.11607611111111,13.170291388888888],[-61.114823055555554,13.16520888888889],[-61.114401944444445,13.159997777777779],[-61.114823055555554,13.154786944444444],[-61.11607611111111,13.149704444444444],[-61.11813055555555,13.144875277777777],[-61.120935277777775,13.140418888888888],[-61.12442138888889,13.136444444444445],[-61.128503333333335,13.133050277777778],[-61.13308055555556,13.130319444444446],[-61.138039722222224,13.128319444444445],[-61.14325972222222,13.127099166666667],[-61.14861111111111,13.126689166666667],[-61.15396277777778,13.127099166666667],[-61.15918222222222,13.128319444444445],[-61.164141944444445,13.130319444444446],[-61.16871888888889,13.133050277777778],[-61.172800555555554,13.136444444444445],[-61.17628694444444,13.140418888888888],[-61.179091944444444,13.144875277777777],[-61.18114611111111,13.149704444444444],[-61.18239916666666,13.154786944444444],[-61.18282027777777,13.159997777777779],[-61.18239916666666,13.16520888888889],[-61.18114611111111,13.170291388888888],[-61.179091944444444,13.17512111111111],[-61.17628694444444,13.179578055555554],[-61.172800555555554,13.183553055555556],[-61.16871888888889,13.186948333333333],[-61.164141944444445,13.189679722222223],[-61.15918222222222,13.191680277777778],[-61.15396277777778,13.192900555555555],[-61.14861111111111,13.193310833333333]]]},"properties":{"id":"TVSA_TWR-ATZ-44","name":"Argyle ATZ","group":"Piarco FIR (TTZP)","type":"ATZ","class":"D","floor_ft":0,"ceil_ft":2000,"floor_label":"SFC","ceil_label":"2,000 ft","bands":"[[\"D\",\"SFC\",\"2,000 ft\"]]","station":"TVSA_TWR","station_name":"Argyle Tower","frequency":"118.800","color":"#f76707","schematic":false,"note":null}},{"type":"Feature","geometry":{"type":"Polygon","coordinates":[[[-60.615,12.708333333333332],[-60.99472222222222,13.315277777777778],[-61.5,13.566666666666666],[-61.72277777777778,13.265277777777778],[-61.96388888888889,12.783888888888889],[-61.21361111111111,12.42861111111111],[-60.615,12.708333333333332]]]},"properties":{"id":"TVSA_TWR-CTR-45","name":"Argyle CTR","group":"Piarco FIR (TTZP)","type":"CTR","class":"D","floor_ft":0,"ceil_ft":5500,"floor_label":"SFC","ceil_label":"5,500 ft","bands":"[[\"D\",\"SFC\",\"5,500 ft\"]]","station":"TVSA_TWR","station_name":"Argyle Tower","frequency":"118.800","color":"#f76707","schematic":false,"note":null}},{"type":"Feature","geometry":{"type":"Polygon","coordinates":[[[-61.26222222222222,13.021921944444445],[-61.25687444444444,13.021511944444445],[-61.25165833333333,13.02029138888889],[-61.246702222222225,13.018290833333333],[-61.24212861111111,13.015559444444444],[-61.23804944444444,13.012164444444444],[-61.234565555555555,13.008189444444444],[-61.23176277777778,13.003732222222222],[-61.229709722222225,12.998902777777777],[-61.22845777777778,12.993819722222222],[-61.22803666666667,12.988608888888889],[-61.22845777777778,12.983398055555554],[-61.229709722222225,12.978315555555556],[-61.23176277777778,12.973486388888888],[-61.234565555555555,12.96903],[-61.23804944444444,12.965055555555555],[-61.24212861111111,12.961661388888889],[-61.246702222222225,12.958930555555554],[-61.25165833333333,12.956930277777778],[-61.25687444444444,12.955710277777778],[-61.26222222222222,12.955300277777777],[-61.26757,12.955710277777778],[-61.27278611111111,12.956930277777778],[-61.27774222222222,12.958930555555554],[-61.28231611111111,12.961661388888889],[-61.286395,12.965055555555555],[-61.289878888888886,12.96903],[-61.29268166666667,12.973486388888888],[-61.294734444444444,12.978315555555556],[-61.295986944444444,12.983398055555554],[-61.29640777777777,12.988608888888889],[-61.295986944444444,12.993819722222222],[-61.294734444444444,12.998902777777777],[-61.29268166666667,13.003732222222222],[-61.289878888888886,13.008189444444444],[-61.286395,13.012164444444444],[-61.28231611111111,13.015559444444444],[-61.27774222222222,13.018290833333333],[-61.27278611111111,13.02029138888889],[-61.26757,13.021511944444445],[-61.26222222222222,13.021921944444445]]]},"properties":{"id":"TVSB_TWR-ATZ-46","name":"J.F. Mitchell ATZ","group":"Piarco FIR (TTZP)","type":"ATZ","class":"G","floor_ft":0,"ceil_ft":2000,"floor_label":"SFC","ceil_label":"2,000 ft","bands":"[[\"G\",\"SFC\",\"2,000 ft\"]]","station":"TVSB_TWR","station_name":"J.F. Mitchell Tower","frequency":"118.450","color":"#f76707","schematic":false,"note":null}},{"type":"Feature","geometry":{"type":"Polygon","coordinates":[[[-61.345,12.734144166666665],[-61.33965833333333,12.733733888888889],[-61.334448055555555,12.732513611111111],[-61.32949777777778,12.730513055555555],[-61.32492944444445,12.727781666666667],[-61.32085472222222,12.724386666666668],[-61.317375000000006,12.72041138888889],[-61.31457527777778,12.715954444444444],[-61.31252472222222,12.711125],[-61.311273888888884,12.706042222222221],[-61.310853611111106,12.70083111111111],[-61.311273888888884,12.695620277777778],[-61.31252472222222,12.690537777777777],[-61.31457527777778,12.68570888888889],[-61.317375000000006,12.681252222222222],[-61.32085472222222,12.677277777777777],[-61.32492944444445,12.67388361111111],[-61.32949777777778,12.671152777777777],[-61.334448055555555,12.669152777777777],[-61.33965833333333,12.6679325],[-61.345,12.667522499999999],[-61.350341666666665,12.6679325],[-61.35555194444444,12.669152777777777],[-61.36050222222222,12.671152777777777],[-61.365070555555555,12.67388361111111],[-61.369145277777776,12.677277777777777],[-61.372625,12.681252222222222],[-61.37542472222222,12.68570888888889],[-61.377475277777776,12.690537777777777],[-61.37872611111111,12.695620277777778],[-61.37914638888889,12.70083111111111],[-61.37872611111111,12.706042222222221],[-61.377475277777776,12.711125],[-61.37542472222222,12.715954444444444],[-61.372625,12.72041138888889],[-61.369145277777776,12.724386666666668],[-61.365070555555555,12.727781666666667],[-61.36050222222222,12.730513055555555],[-61.35555194444444,12.732513611111111],[-61.350341666666665,12.733733888888889],[-61.345,12.734144166666665]]]},"properties":{"id":"TVSC_TWR-ATZ-47","name":"Canouan ATZ","group":"Piarco FIR (TTZP)","type":"ATZ","class":"G","floor_ft":0,"ceil_ft":2000,"floor_label":"SFC","ceil_label":"2,000 ft","bands":"[[\"G\",\"SFC\",\"2,000 ft\"]]","station":"TVSC_TWR","station_name":"Canouan Tower","frequency":"118.050","color":"#f76707","schematic":false,"note":null}},{"type":"Feature","geometry":{"type":"Polygon","coordinates":[[[-61.18,12.921088611111111],[-61.17465444444444,12.92067861111111],[-61.169440277777774,12.919458055555555],[-61.16448638888889,12.9174575],[-61.159914444444446,12.914726111111111],[-61.155836944444445,12.911331111111112],[-61.15235444444444,12.907356111111111],[-61.14955277777778,12.90289888888889],[-61.14750083333333,12.898069444444443],[-61.14624888888889,12.892986666666665],[-61.145828333333334,12.887775555555555],[-61.14624888888889,12.882564722222222],[-61.14750083333333,12.877482222222223],[-61.14955277777778,12.872653055555556],[-61.15235444444444,12.868196666666668],[-61.155836944444445,12.864222222222223],[-61.159914444444446,12.860828055555555],[-61.16448638888889,12.858097222222222],[-61.169440277777774,12.856096944444444],[-61.17465444444444,12.854876944444444],[-61.18,12.854466944444445],[-61.18534555555555,12.854876944444444],[-61.19055972222222,12.856096944444444],[-61.19551361111111,12.858097222222222],[-61.20008555555556,12.860828055555555],[-61.20416305555556,12.864222222222223],[-61.20764555555556,12.868196666666668],[-61.21044722222223,12.872653055555556],[-61.21249916666667,12.877482222222223],[-61.213751111111115,12.882564722222222],[-61.21417166666667,12.887775555555555],[-61.213751111111115,12.892986666666665],[-61.21249916666667,12.898069444444443],[-61.21044722222223,12.90289888888889],[-61.20764555555556,12.907356111111111],[-61.20416305555556,12.911331111111112],[-61.20008555555556,12.914726111111111],[-61.19551361111111,12.9174575],[-61.19055972222222,12.919458055555555],[-61.18534555555555,12.92067861111111],[-61.18,12.921088611111111]]]},"properties":{"id":"TVSM_TWR-ATZ-48","name":"Mustique ATZ","group":"Piarco FIR (TTZP)","type":"ATZ","class":"G","floor_ft":0,"ceil_ft":2000,"floor_label":"SFC","ceil_label":"2,000 ft","bands":"[[\"G\",\"SFC\",\"2,000 ft\"]]","station":"TVSM_TWR","station_name":"Mustique Tower","frequency":"123.000","color":"#f76707","schematic":false,"note":null}},{"type":"Feature","geometry":{"type":"Polygon","coordinates":[[[-61.414722222222224,12.631921944444445],[-61.40938277777778,12.631511944444444],[-61.40417472222222,12.630291388888889],[-61.39922638888889,12.628290833333335],[-61.39465944444444,12.625559444444445],[-61.390586666666664,12.622164444444445],[-61.38710833333333,12.618189444444445],[-61.38430972222222,12.613732222222222],[-61.38226,12.608902777777777],[-61.381009722222224,12.603819999999999],[-61.380589444444446,12.59860888888889],[-61.381009722222224,12.593398055555555],[-61.38226,12.588315555555557],[-61.38430972222222,12.58348638888889],[-61.38710833333333,12.57903],[-61.390586666666664,12.575055555555556],[-61.39465944444444,12.571661388888888],[-61.39922638888889,12.568930555555555],[-61.40417472222222,12.566930277777777],[-61.40938277777778,12.565710277777779],[-61.414722222222224,12.565300277777778],[-61.42006194444444,12.565710277777779],[-61.42526972222222,12.566930277777777],[-61.43021805555556,12.568930555555555],[-61.434785,12.571661388888888],[-61.43885777777778,12.575055555555556],[-61.44233611111111,12.57903],[-61.44513472222222,12.58348638888889],[-61.44718444444444,12.588315555555557],[-61.44843472222222,12.593398055555555],[-61.448854999999995,12.59860888888889],[-61.44843472222222,12.603819999999999],[-61.44718444444444,12.608902777777777],[-61.44513472222222,12.613732222222222],[-61.44233611111111,12.618189444444445],[-61.43885777777778,12.622164444444445],[-61.434785,12.625559444444445],[-61.43021805555556,12.628290833333335],[-61.42526972222222,12.630291388888889],[-61.42006194444444,12.631511944444444],[-61.414722222222224,12.631921944444445]]]},"properties":{"id":"TVSU_TWR-ATZ-49","name":"Union Island ATZ","group":"Piarco FIR (TTZP)","type":"ATZ","class":"G","floor_ft":0,"ceil_ft":2000,"floor_label":"SFC","ceil_label":"2,000 ft","bands":"[[\"G\",\"SFC\",\"2,000 ft\"]]","station":"TVSU_TWR","station_name":"Union Island Tower","frequency":"122.800","color":"#f76707","schematic":false,"note":null}}]}