{"type":"FeatureCollection","features":[{"type":"Feature","geometry":{"type":"Point","coordinates":[-70.94479243675502,15.024972790464897]},"properties":{"name":"Curaçao UIR (Upper)","type":"UIR","group":"Curaçao FIR (TNCF)","station":"TNCF_CTR","rank":6}},{"type":"Feature","geometry":{"type":"Point","coordinates":[-70.94479243675502,15.024972790464897]},"properties":{"name":"Curaçao FIR (Lower)","type":"FIR","group":"Curaçao FIR (TNCF)","station":"TNCF_CTR","rank":5}},{"type":"Feature","geometry":{"type":"Point","coordinates":[-69.41288173738496,13.002084278569376]},"properties":{"name":"Curaçao TMA","type":"TMA","group":"Curaçao FIR (TNCF)","station":"TNCF_APP","rank":4}},{"type":"Feature","geometry":{"type":"Point","coordinates":[-63.119134183962764,17.943468866995847]},"properties":{"name":"Juliana TMA","type":"TMA","group":"Juliana TMA (TNCM)","station":"TNCM_APP","rank":4}},{"type":"Feature","geometry":{"type":"Point","coordinates":[-70.01527778047266,12.501387694076843]},"properties":{"name":"Beatrix ATZ","type":"ATZ","group":"Curaçao FIR (TNCF)","station":"TNCA_TWR","rank":1}},{"type":"Feature","geometry":{"type":"Point","coordinates":[-69.98275361243799,12.573183009311295]},"properties":{"name":"Beatrix CTR","type":"CTR","group":"Curaçao FIR (TNCF)","station":"TNCA_APP","rank":2}},{"type":"Feature","geometry":{"type":"Point","coordinates":[-68.26722219513096,12.13055081426543]},"properties":{"name":"Flamingo ATZ","type":"ATZ","group":"Curaçao FIR (TNCF)","station":"TNCB_TWR","rank":1}},{"type":"Feature","geometry":{"type":"Point","coordinates":[-68.22612607383759,12.135763219231782]},"properties":{"name":"Flamingo CTR","type":"CTR","group":"Curaçao FIR (TNCF)","station":"TNCF_APP","rank":2}},{"type":"Feature","geometry":{"type":"Point","coordinates":[-62.99999525056278,18.084298081440284]},"properties":{"name":"Grand Case TAR","type":"APP","group":"Juliana TMA (TNCM)","station":"TNCM_APP","rank":3}},{"type":"Feature","geometry":{"type":"Point","coordinates":[-68.95972219142672,12.188884123565002]},"properties":{"name":"Hato ATZ","type":"ATZ","group":"Curaçao FIR (TNCF)","station":"TNCC_TWR","rank":1}},{"type":"Feature","geometry":{"type":"Point","coordinates":[-68.90863853112181,12.198162935628291]},"properties":{"name":"Hato CTR","type":"CTR","group":"Curaçao FIR (TNCF)","station":"TNCF_APP","rank":2}},{"type":"Feature","geometry":{"type":"Point","coordinates":[-63.10004618260571,18.02879178541624]},"properties":{"name":"Juliana CTR","type":"CTR","group":"Juliana TMA (TNCM)","station":"TNCM_TWR","rank":2}},{"type":"Feature","geometry":{"type":"Point","coordinates":[-63.05754566783621,18.245386897773283]},"properties":{"name":"C.J. Lloyd CTR (Anguilla)","type":"CTR","group":"Juliana TMA (TNCM)","station":"TQPF_TWR","rank":2}},{"type":"Feature","geometry":{"type":"Point","coordinates":[-63.22057510411235,17.645364710353874]},"properties":{"name":"Saba ATZ","type":"ATZ","group":"Juliana TMA (TNCM)","station":null,"rank":1}},{"type":"Feature","geometry":{"type":"Point","coordinates":[-62.88496702530133,17.950168656119157]},"properties":{"name":"St Barthélemy TAR","type":"APP","group":"Juliana TMA (TNCM)","station":"TNCM_APP","rank":3}},{"type":"Feature","geometry":{"type":"Point","coordinates":[-62.9794973333405,17.496511955217954]},"properties":{"name":"Statia ATZ","type":"ATZ","group":"Juliana TMA (TNCM)","station":null,"rank":1}},{"type":"Feature","geometry":{"type":"Point","coordinates":[-47.59360910605569,14.72035270950748]},"properties":{"name":"Piarco Oceanic FIR","type":"OCEANIC","group":"Piarco FIR (TTZP)","station":"TTZO_FSS","rank":7}},{"type":"Feature","geometry":{"type":"Point","coordinates":[-60.06326633371426,13.712979560003967]},"properties":{"name":"Piarco UTA (Upper)","type":"UIR","group":"Piarco FIR (TTZP)","station":"TTZP_CTR","rank":6}},{"type":"Feature","geometry":{"type":"Point","coordinates":[-60.06326633371426,13.712979560003967]},"properties":{"name":"Piarco FIR (Lower)","type":"FIR","group":"Piarco FIR (TTZP)","station":"TTZP_CTR","rank":5}},{"type":"Feature","geometry":{"type":"Point","coordinates":[-61.91538961456265,17.29037851077085]},"properties":{"name":"V.C. Bird TMA","type":"TMA","group":"Piarco FIR (TTZP)","station":"TAPA_APP","rank":4}},{"type":"Feature","geometry":{"type":"Point","coordinates":[-59.56768877479682,13.237037243163444]},"properties":{"name":"Adams TMA (Barbados)","type":"TMA","group":"Piarco FIR (TTZP)","station":"TBPB_APP","rank":4}},{"type":"Feature","geometry":{"type":"Point","coordinates":[-60.85970048796738,14.720807065505243]},"properties":{"name":"Martinique TMA","type":"TMA","group":"Piarco FIR (TTZP)","station":"TFFF_APP","rank":4}},{"type":"Feature","geometry":{"type":"Point","coordinates":[-61.69058797716339,16.088162933360817]},"properties":{"name":"Raizet TMA","type":"TMA","group":"Piarco FIR (TTZP)","station":"TFFR_APP","rank":4}},{"type":"Feature","geometry":{"type":"Point","coordinates":[-61.49268815800904,12.14764786860236]},"properties":{"name":"Maurice Bishop TMA","type":"TMA","group":"Piarco FIR (TTZP)","station":"TGPY_APP","rank":4}},{"type":"Feature","geometry":{"type":"Point","coordinates":[-61.20399517196252,10.746760331193789]},"properties":{"name":"Piarco TMA","type":"TMA","group":"Piarco FIR (TTZP)","station":"TTPP_APP","rank":4}},{"type":"Feature","geometry":{"type":"Point","coordinates":[-61.305172085173524,12.953431094916626]},"properties":{"name":"Argyle TMA","type":"TMA","group":"Piarco FIR (TTZP)","station":"TVSA_APP","rank":4}},{"type":"Feature","geometry":{"type":"Point","coordinates":[-61.801947431281064,17.31056260981792]},"properties":{"name":"V.C. Bird CTR","type":"CTR","group":"Piarco FIR (TTZP)","station":"TAPA_TWR","rank":2}},{"type":"Feature","geometry":{"type":"Point","coordinates":[-59.492222212632285,13.074718688964435]},"properties":{"name":"Adams ATZ","type":"ATZ","group":"Piarco FIR (TTZP)","station":"TBPB_TWR","rank":1}},{"type":"Feature","geometry":{"type":"Point","coordinates":[-59.48388883991418,13.07491143682221]},"properties":{"name":"Adams CTR","type":"CTR","group":"Piarco FIR (TTZP)","station":"TBPB_TWR","rank":2}},{"type":"Feature","geometry":{"type":"Point","coordinates":[-61.39202775841956,15.336749299460012]},"properties":{"name":"Canefield ATZ","type":"ATZ","group":"Piarco FIR (TTZP)","station":"TDCF_TWR","rank":1}},{"type":"Feature","geometry":{"type":"Point","coordinates":[-61.30138889210247,15.546665966354308]},"properties":{"name":"Douglas–Charles ATZ","type":"ATZ","group":"Piarco FIR (TTZP)","station":"TDPD_TWR","rank":1}},{"type":"Feature","geometry":{"type":"Point","coordinates":[-61.02277781669208,14.59081747442633]},"properties":{"name":"Martinique CTR","type":"CTR","group":"Piarco FIR (TTZP)","station":"TFFF_TWR","rank":2}},{"type":"Feature","geometry":{"type":"Point","coordinates":[-61.57907050503082,16.31533014405827]},"properties":{"name":"Raizet CTR","type":"CTR","group":"Piarco FIR (TTZP)","station":"TFFR_TWR","rank":2}},{"type":"Feature","geometry":{"type":"Point","coordinates":[-61.78526753307022,12.001512799759904]},"properties":{"name":"Maurice Bishop CTR","type":"CTR","group":"Piarco FIR (TTZP)","station":"TGPY_TWR","rank":2}},{"type":"Feature","geometry":{"type":"Point","coordinates":[-62.719444388007986,17.31055438480503]},"properties":{"name":"Bradshaw ATZ","type":"ATZ","group":"Piarco FIR (TTZP)","station":"TKPK_TWR","rank":1}},{"type":"Feature","geometry":{"type":"Point","coordinates":[-62.72320634395027,17.210859950256342]},"properties":{"name":"Bradshaw TMA (St Kitts/Nevis)","type":"TMA","group":"Piarco FIR (TTZP)","station":"TKPK_APP","rank":4}},{"type":"Feature","geometry":{"type":"Point","coordinates":[-62.59000000281054,17.205555126074255]},"properties":{"name":"Amory ATZ","type":"ATZ","group":"Piarco FIR (TTZP)","station":"TKPN_TWR","rank":1}},{"type":"Feature","geometry":{"type":"Point","coordinates":[-60.99999999974646,14.018887917258679]},"properties":{"name":"George Charles ATZ","type":"ATZ","group":"Piarco FIR (TTZP)","station":"TLPC_TWR","rank":1}},{"type":"Feature","geometry":{"type":"Point","coordinates":[-60.951944446888334,13.732221270443665]},"properties":{"name":"Hewanorra ATZ","type":"ATZ","group":"Piarco FIR (TTZP)","station":"TLPL_TWR","rank":1}},{"type":"Feature","geometry":{"type":"Point","coordinates":[-61.0618335345878,13.77558051724061]},"properties":{"name":"St Lucia TMA","type":"TMA","group":"Piarco FIR (TTZP)","station":"TLPL_APP","rank":4}},{"type":"Feature","geometry":{"type":"Point","coordinates":[-62.193333334761654,16.7913881609971]},"properties":{"name":"J.A. Osborne ATZ","type":"ATZ","group":"Piarco FIR (TTZP)","station":"TRPG_TWR","rank":1}},{"type":"Feature","geometry":{"type":"Point","coordinates":[-60.832222254211416,11.149719203330147]},"properties":{"name":"Robinson ATZ","type":"ATZ","group":"Piarco FIR (TTZP)","station":"TTCP_TWR","rank":1}},{"type":"Feature","geometry":{"type":"Point","coordinates":[-61.33722223353503,10.59527494148233]},"properties":{"name":"Piarco ATZ","type":"ATZ","group":"Piarco FIR (TTZP)","station":"TTPP_TWR","rank":1}},{"type":"Feature","geometry":{"type":"Point","coordinates":[-61.0826744042168,10.873206185534444]},"properties":{"name":"Piarco CTR","type":"CTR","group":"Piarco FIR (TTZP)","station":"TTPP_TWR","rank":2}},{"type":"Feature","geometry":{"type":"Point","coordinates":[-61.148611122342,13.159999430984188]},"properties":{"name":"Argyle ATZ","type":"ATZ","group":"Piarco FIR (TTZP)","station":"TVSA_TWR","rank":1}},{"type":"Feature","geometry":{"type":"Point","coordinates":[-61.305172085173524,12.953431094916626]},"properties":{"name":"Argyle CTR","type":"CTR","group":"Piarco FIR (TTZP)","station":"TVSA_TWR","rank":2}},{"type":"Feature","geometry":{"type":"Point","coordinates":[-61.26222223296921,12.988610569499428]},"properties":{"name":"J.F. Mitchell ATZ","type":"ATZ","group":"Piarco FIR (TTZP)","station":"TVSB_TWR","rank":1}},{"type":"Feature","geometry":{"type":"Point","coordinates":[-61.34500000000803,12.700832786894383]},"properties":{"name":"Canouan ATZ","type":"ATZ","group":"Piarco FIR (TTZP)","station":"TVSC_TWR","rank":1}},{"type":"Feature","geometry":{"type":"Point","coordinates":[-61.18000000030466,12.88777723719634]},"properties":{"name":"Mustique ATZ","type":"ATZ","group":"Piarco FIR (TTZP)","station":"TVSM_TWR","rank":1}},{"type":"Feature","geometry":{"type":"Point","coordinates":[-61.414722223065404,12.598610570477886]},"properties":{"name":"Union Island ATZ","type":"ATZ","group":"Piarco FIR (TTZP)","station":"TVSU_TWR","rank":1}}]}